FOLDERYEAR;LicenceRSN;LicenceNumber;LicenceRevisionNumber;BusinessName;BusinessTradeName;Status;IssuedDate;ExpiredDate;BusinessType;BusinessSubType;Unit;UnitType;House;Street;City;Province;Country;PostalCode;LocalArea;NumberofEmployees;FeePaid;ExtractDate;Geom
97;104806;97-144521;00;INT'L MONEY REMITTANCE URGENTE EXPRESS INC;;Issued;1997-11-14;1997-12-31;Moving/Transfer Service;Courier/Messenger;2;Floor;1281;KINGSWAY;VANCOUVER;BC;CA;V5V 3E2;Kensington-Cedar Cottage;000;95;2019-07-21T06:47:54-07:00;
98;122558;98-162070;00;Nam Quoc Tran (Nam Tran);Linda Beauty Centre;Gone Out of Business;;;Hairdressing Salon *Historic*;;U5;Unit;601;W BROADWAY;VANCOUVER;BC;CA;V5Z 4C2;Fairview;000;166;2019-07-21T06:47:54-07:00;
98;122561;98-162073;00;Nam Quoc Tran (Nam Tran);Linda Beauty Centre;Gone Out of Business;;;Tanning Salon;;U5;Unit;601;W BROADWAY;VANCOUVER;BC;CA;V5Z 4C2;Fairview;000;166;2019-07-21T06:47:54-07:00;
98;130613;98-170108;00;DR R W McCraw Inc;;Issued;1998-02-12;1998-12-31;Health Services;Physician/Surgeon;256;Unit;2733;HEATHER ST;VANCOUVER;BC;CA;V5Z 3J5;Fairview;000;88;2019-07-21T06:47:54-07:00;
98;136771;98-176259;00;LORD BYNG SECONDARY SCHOOL;Lord Byng X-Mas Tree Lot;Gone Out of Business;;;Retail Dealer;;;;3939;16TH;VANCOUVER;BC;CA;V64 3C9;;000;;2019-07-21T06:47:54-07:00;
98;136993;98-176478;00;Hornby Developments Ltd;;Issued;1998-08-27;1998-12-31;Contractor;Building;1100;Unit;938;Howe St;VANCOUVER;BC;;V6Z 1N9;Downtown;000;118;2019-07-21T06:47:54-07:00;
98;139351;98-178834;00;ROUNDHOUSE PRODUCE & BAKERY LTD;;Gone Out of Business;1998-02-25;1998-12-31;Ltd Service Food Establishment;;;;1286;PACIFIC BOULEVARD;VANCOUVER;BC;CA;V6Z 2V1;Downtown;000;322;2019-07-21T06:47:55-07:00;
98;163062;98-202518;00;William S Tong (WILLIAM TONG);Tong Associates;Gone Out of Business;;;Office;Architect;2;Unit;3615;W 19TH AV;VANCOUVER;BC;;V6S 1C5;Dunbar-Southlands;000;;2019-07-21T06:47:55-07:00;
98;163972;98-203428;00;(B ANAMI);BEYOND BOOKS;Gone Out of Business;;;Office;Publisher;600;Suite;425;CARRALL ST;VANCOUVER;BC;CA;V6B 6E3;Downtown;000;;2019-07-21T06:47:55-07:00;
98;162148;98-201604;00;Frank Yun Fook Leung;Frank Sos Delivery Service;Pending;;;Moving/Transfer Service;Other;;;714;JACKSON AV;VANCOUVER;BC;;V6A 3B9;Strathcona;000;;2019-07-21T06:47:55-07:00;
97;101096;97-140813;00;(B ANAMI);BEYOND BOOKS;Issued;1997-09-17;1997-12-31;Office;Publisher;600;Suite;425;CARRALL ST;VANCOUVER;BC;CA;V6B 6E3;Downtown;000;85;2019-07-21T06:47:54-07:00;
97;101114;97-140831;00;Michael Chan & Sau Chan;;Inactive;;;One-Family Dwelling;;;;;;VANCOUVER;BC;CA;;Kerrisdale;000;;2019-07-21T06:47:54-07:00;
97;102859;97-142575;00;VICTORY & TRUSTFUL INFORMATION LTD;;Issued;1997-10-08;1997-12-31;Office;Consultant;204;Unit;8268;GRANVILLE ST;VANCOUVER;BC;CA;V6P 4Z4;Marpole;000;85;2019-07-21T06:47:54-07:00;
97;104534;97-144249;00;(Kambiz Ebrahimi);Travel Access;Issued;1997-11-06;1997-12-31;Retail Dealer;;10;Unit;555;W HASTINGS ST;VANCOUVER;BC;CA;V6B 4N4;Downtown;000;85;2019-07-21T06:47:54-07:00;
98;158668;98-198132;00;Beacon Heating & Cooling Ltd;;Issued;1998-02-06;1998-12-31;Plumber & Gas Contractor;;1;Unit;9079;Shaughnessy St;VANCOUVER;BC;;V6P 6R9;Marpole;000;88;2019-07-21T06:47:55-07:00;
97;31053;97-051660;00;Terrise Mathers & Arthur Schmale;;Issued;1997-08-06;1997-12-31;Duplex;;;;;;VANCOUVER;BC;CA;;Kitsilano;000;42;2019-07-21T06:47:54-07:00;
97;41185;97-043183;00;Freshness Naturally Restaurant Ltd;;Issued;1997-05-08;1997-12-31;Ltd Service Food Establishment;;;;1075;Howe St;VANCOUVER;BC;;V6Z 1P6;Downtown;000;310;2019-07-21T06:47:54-07:00;
97;41929;97-054962;00;Edward Yadlos;;Pending;;1997-12-31;Duplex;;;;;;VANCOUVER;BC;CA;;South Cambie;000;;2019-07-21T06:47:54-07:00;
97;46582;97-042974;00;Mary Belandres & Danilo Mercado;MD Janitorial Services;Issued;1997-05-01;1997-12-31;Janitorial Services;;;;610;E 22ND AV;VANCOUVER;BC;CA;V5V 1V4;Riley Park;000;104;2019-07-21T06:47:54-07:00;
97;23413;97-030665;00;Fidelity Realty Ltd;;Issued;1997-03-25;1997-12-31;Real Estate Dealer;;;;5052;VICTORIA DR;VANCOUVER;BC;;V5P 3T8;Kensington-Cedar Cottage;000;85;2019-07-21T06:47:54-07:00;
97;24840;97-025949;00;(Anna-Maria Csapo);;Issued;1997-03-17;1997-12-31;Instruction;Music Teacher;416;Apt;518;MOBERLY ROAD;VANCOUVER;BC;;V5Z 4G3;Kitsilano;000;85;2019-07-21T06:47:54-07:00;
97;178;97-100176;00;(KIM GAUVIN);;Cancelled;;;Vending Machines;;102;Unit;1251;CARDERO;VANCOUVER;BC;CA;V6G 2H9;;000;;2019-07-21T06:47:53-07:00;
97;221;97-100219;00;(Louis Hoch);;Cancelled;;;Vending Machines;;101;Unit;1001;W Broadway;VANCOUVER;BC;CA;V6H 4E4;;000;;2019-07-21T06:47:53-07:00;
97;369;97-100367;00;KWIK KAFE LTD;;Issued;1997-05-23;1997-12-31;Vending Machines;;;;1003;W 33rd Av;VANCOUVER;BC;CA;V6M 1A1;;000;800;2019-07-21T06:47:53-07:00;
97;434;97-100432;00;(PETER ROIVICH);;Cancelled;;;Vending Machines;;;;6669;GRANVILLE;VANCOUVER;BC;CA;V6P 4X1;;000;;2019-07-21T06:47:53-07:00;
97;446;97-100444;00;RIVERIA MOTOR INN;;Cancelled;;;Vending Machines;;;;1431;ROBSON;VANCOUVER;BC;CA;V6G 1C1;;000;;2019-07-21T06:47:53-07:00;
97;455;97-100453;00;SPC Holdings Ltd;;Cancelled;;;Vending Machines;;;;;;VANCOUVER;BC;CA;V6B 3V7;;000;;2019-07-21T06:47:53-07:00;
97;527;97-100525;00;EMPRESS HOTEL (WAYNE TEXMO);;Cancelled;;;Vending Machines;;;;235;HASTINGS;VANCOUVER;BC;CA;V6A 1P2;;000;;2019-07-21T06:47:53-07:00;
97;614;97-100612;00;Yang's Enterprises Ltd;;Issued;1997-05-23;1997-12-31;Vending Machines;;101;Unit;2352;W Broadway;VANCOUVER;BC;CA;V6K 2E5;;000;80;2019-07-21T06:47:53-07:00;
97;9687;97-024859;00;Canadian Cheque Cashing Ltd;;Issued;1997-03-17;1997-12-31;Cheque Cashing *Historic*;;;;;;VANCOUVER;BC;CA;V6A 1N5;Downtown;000;85;2019-07-21T06:47:53-07:00;
97;7144;97-000136;00;Dino Bordignon & Lucia Bordignon;;Issued;1997-01-03;1997-12-31;Multiple Dwelling;;;;;;VANCOUVER;BC;;;Hastings-Sunrise;000;246;2019-07-21T06:47:53-07:00;
97;16106;97-034691;00;Brian Baxter (Brian Baxter);;Issued;1997-04-02;1997-12-31;Office;Design Company;;;;;VANCOUVER;BC;CA;V5T 2M2;Mount Pleasant;000;85;2019-07-21T06:47:53-07:00;
97;17706;97-030340;00;Peter G Lee & Faith H Lee;;Issued;1997-03-25;1997-12-31;One-Family Dwelling;;;;;;VANCOUVER;BC;CA;;Kensington-Cedar Cottage;000;39;2019-07-21T06:47:53-07:00;
03;654786;03-367914;00;Edward Yadlos;;Issued;2002-12-04;2003-12-31;Duplex;;;;;;VANCOUVER;BC;CA;;South Cambie;000;48;2019-07-21T06:47:57-07:00;
03;656120;03-369248;00;(Ernest Ho);Unihealth Therapeutic Centre;Issued;2003-01-06;2003-12-31;Health and Beauty;;200;Apt;1195;W BROADWAY;VANCOUVER;BC;;V6H 3X5;Fairview;000;182;2019-07-21T06:47:57-07:00;
01;469720;01-153864;00;(Ronald Silley);;Issued;2001-02-06;2001-12-31;Duplex;;;;;;VANCOUVER;BC;CA;;Mount Pleasant;000;92;2019-07-21T06:47:57-07:00;
01;469935;01-154079;00;Edward Yadlos;;Issued;2001-05-23;2001-12-31;Duplex;;;;;;VANCOUVER;BC;CA;;South Cambie;000;56;2019-07-21T06:47:57-07:00;
01;471002;01-155146;00;Terrise Mathers & Arthur Schmale;;Pending;;;Duplex;;;;;;VANCOUVER;BC;CA;;Kitsilano;000;;2019-07-21T06:47:57-07:00;
01;473053;01-157196;00;Vancouver Seventh Day Adventist Church;;Issued;2001-02-19;2001-12-31;Multiple Dwelling;;;;;;VANCOUVER;BC;;;Oakridge;000;168;2019-07-21T06:47:57-07:00;
01;498453;01-385145;00;David L New-Small (David New-Small);;Issued;2001-02-08;2001-12-31;Secondary Suite - Phase Out *Historic*;;;;;;VANCOUVER;BC;CA;;Kitsilano;000;46;2019-07-21T06:47:57-07:00;
03;693259;03-406386;00;Vancouver Seventh Day Adventist Church;;Issued;2003-04-29;2003-12-31;Multiple Dwelling;;;;;;VANCOUVER;BC;;;Oakridge;000;96;2019-07-21T06:47:57-07:00;
98;151006;98-190475;00;(Ambassagir Tecle);;Issued;1998-03-18;1998-12-31;Retail Dealer - Food;;;;2208;E HASTINGS ST;VANCOUVER;BC;CA;V5L 1V4;Grandview-Woodland;000;166;2019-07-21T06:47:55-07:00;
98;151603;98-191070;00;Peter G Lee & Faith H Lee;;Issued;1998-02-16;1998-12-31;One-Family Dwelling;;;;;;VANCOUVER;BC;CA;;Kensington-Cedar Cottage;000;38;2019-07-21T06:47:55-07:00;
98;156137;98-195601;00;Brian Baxter (Brian Baxter);;Issued;1998-03-30;1998-12-31;Office;Design Company;;;;;VANCOUVER;BC;CA;V5T 2M2;Mount Pleasant;000;88;2019-07-21T06:47:55-07:00;
98;201643;98-240793;00;Michael Chan & Sau Chan;;Pending;;;One-Family Dwelling;;;;;;VANCOUVER;BC;CA;;Kerrisdale;000;;2019-07-21T06:47:55-07:00;
00;332464;00-120247;00;Amy W Ng (Amy Ng);;Issued;2000-01-26;2000-12-31;One-Family Dwelling;;;;;;VANCOUVER;BC;CA;;West Point Grey;000;39;2019-07-21T06:47:56-07:00;
00;337032;00-124815;00;Terrise Mathers & Arthur Schmale;;Pending;;;Duplex;;;;;;VANCOUVER;BC;CA;;Kitsilano;000;;2019-07-21T06:47:56-07:00;
99;223340;99-257807;00;(Ernest Ho);Unihealth Therapeutic Centre;Issued;1999-02-24;1999-12-31;Health and Beauty;;200;Apt;1195;W BROADWAY;VANCOUVER;BC;;V6H 3X5;Fairview;000;169;2022-06-27T04:12:27-07:00;
99;223362;99-257829;00;Nam Quoc Tran (Nam Tran);Linda Beauty Salon;Gone Out of Business;1998-12-29;1999-12-31;Health and Beauty;;U5;Unit;601;W BROADWAY;VANCOUVER;BC;CA;V5Z 4C2;Fairview;000;169;2022-06-27T04:12:27-07:00;
99;229176;99-263637;00;Peter G Lee & Faith H Lee;;Issued;1999-02-24;1999-12-31;One-Family Dwelling;;;;;;VANCOUVER;BC;CA;;Kensington-Cedar Cottage;000;39;2022-06-27T04:12:27-07:00;
99;235944;99-270394;00;Canada Life Assurance Co;;Issued;1999-01-11;1999-12-31;Office;Insurance Company;;;;;VANCOUVER;BC;CA;V6E 4N4;Downtown;000;90;2022-06-27T04:12:27-07:00;
99;236608;99-271058;00;Brian Baxter (Brian Baxter);;Issued;1999-03-03;1999-12-31;Office;Design Company;;;;;VANCOUVER;BC;CA;V5T 2M2;Mount Pleasant;000;95;2022-06-27T04:12:27-07:00;
99;241561;99-276011;00;Professional Integrated Insurance Services Ltd;;Issued;1999-02-22;1999-12-31;Office;Insurance Agent;103;Unit;644;SW MARINE DRIVE;VANCOUVER;BC;CA;V6P 5Y1;Marpole;000;90;2022-06-27T04:12:27-07:00;
99;243070;99-277520;00;DR R W McCraw Inc;;Issued;1999-01-26;1999-12-31;Health Services;Physician/Surgeon;256;Unit;2733;HEATHER ST;VANCOUVER;BC;CA;V5Z 3J5;Fairview;000;90;2022-06-27T04:12:27-07:00;
99;246828;99-281180;00;Jules Du Mont;;Issued;1999-01-07;1999-12-31;Multiple Dwelling;;;;;;VANCOUVER;BC;CA;;Kitsilano;000;90;2022-06-27T04:12:27-07:00;
99;247518;99-281870;00;Vancouver Seventh Day Adventist Church;;Issued;1999-01-18;1999-12-31;Multiple Dwelling;;;;;;VANCOUVER;BC;;;Oakridge;000;162;2022-06-27T04:12:27-07:00;
99;251091;99-285430;00;Beacon Heating & Cooling Ltd;;Issued;1999-01-28;1999-12-31;Plumber & Gas Contractor;;1;Unit;9079;Shaughnessy St;VANCOUVER;BC;;V6P 6R9;Marpole;000;90;2022-06-27T04:12:27-07:00;
99;270669;99-304963;00;Lantern Lighting Ltdi;;Issued;1999-02-25;1999-12-31;Retail Dealer;;;;512;W BROADWAY;VANCOUVER;BC;CA;V5Z  1E9;Fairview;000;90;2022-06-27T04:12:27-07:00;
99;270696;99-304990;00;(Kambiz Ebrahimi);Travel Access;Issued;1999-01-13;1999-12-31;Retail Dealer;;10;Unit;555;W HASTINGS ST;VANCOUVER;BC;CA;V6B 4N4;Downtown;000;90;2022-06-27T04:12:27-07:00;
99;277401;99-311662;00;Fidelity Realty Ltd;;Issued;1999-02-19;1999-12-31;Real Estate Dealer;;;;5052;VICTORIA DR;VANCOUVER;BC;;V5P 3T8;Kensington-Cedar Cottage;000;90;2022-06-27T04:12:27-07:00;
99;278805;99-313064;00;Terence McGee & Rob Coll;Sun City Tanning;Issued;1999-03-03;1999-12-31;Tanning Salon;;203;Unit;888;BURRARD ST;VANCOUVER;BC;CA;V6Z 1X9;Downtown;000;177;2022-06-27T04:12:27-07:00;
99;298037;99-332197;00;KWIK KAFE LTD;;Issued;1999-03-22;1999-12-31;Vending Machines;;;;1003;W 33rd Av;VANCOUVER;BC;CA;V6M 1A1;;000;420;2022-06-27T04:12:27-07:00;
99;215223;99-249793;00;Canadian Cheque Cashing Ltd;;Issued;1999-01-22;1999-12-31;Cheque Cashing *Historic*;;;;;;VANCOUVER;BC;CA;V6A 1N5;Downtown;000;90;2022-06-27T04:12:26-07:00;
02;542974;02-110547;00;Fidelity Realty Ltd;;Issued;2002-02-01;2002-12-31;Real Estate Dealer;;;;5052;VICTORIA DR;VANCOUVER;BC;;V5P 3T8;Kensington-Cedar Cottage;000;95;2019-07-21T06:47:57-07:00;
10;1512825;10-201093;00;"37' Liveaboard-""Brand XXX"" (Mr/Mrs Harvey)";;Pending;;;Live-aboards;;;;;;VANCOUVER;BC;CA;V6G3E7;Downtown;000;;2019-07-21T06:48:00-07:00;
10;1512827;10-201095;00;">37' Liveaboard-""Fortuna"" (Mr/Mrs Kirby)";;Pending;;;Live-aboards;;;;;;VANCOUVER;BC;CA;V6G3E7;Downtown;000;;2019-07-21T06:48:00-07:00;
10;1512828;10-201096;00;"43' liveaboard-""La Mia Marchessa"" (Mr/Mrs Marchessault)";;Pending;;;Live-aboards;;;;;;VANCOUVER;BC;CA;V6G3E7;Downtown;000;;2019-07-21T06:48:00-07:00;
10;1512835;10-201103;00;"36' 4""Liveaboard-""Karma"" (Mr/Mrs Rowse)";;Pending;;;Live-aboards;;;;;;VANCOUVER;BC;CA;V6G3E7;Downtown;000;;2019-07-21T06:48:00-07:00;
09;1295953;09-102102;00;(Ronald Silley);;Issued;2009-01-16;2009-12-31;Duplex;;;;;;VANCOUVER;BC;CA;;Mount Pleasant;000;112;2019-07-21T06:48:00-07:00;
09;1300533;09-106679;00;Gail Hegquist & Gordon Chamberlin;;Issued;2008-12-18;2009-12-31;One-Family Dwelling;;;;;;VANCOUVER;BC;CA;;Hastings-Sunrise;000;56;2019-07-21T06:48:00-07:00;
09;1322385;09-128464;00;Canada Life Assurance Co;;Issued;2008-12-30;2009-12-31;Office;Insurance Company;;;;;VANCOUVER;BC;CA;V6E 4N4;Downtown;000;133;2019-07-21T06:48:00-07:00;
09;1322523;09-128602;00;Brian Baxter (Brian Baxter);;Issued;2009-02-11;2009-12-31;Office;Design Company;;;;;VANCOUVER;BC;CA;;Mount Pleasant;0;116;2019-07-21T06:48:00-07:00;
10;1436220;10-128942;00;Canada Life Assurance Co;;Issued;2010-03-11;2010-12-31;Office;Insurance Company;;;;;VANCOUVER;BC;CA;V6E 4N4;Downtown;000;178;2019-07-21T06:48:00-07:00;
05;904648;05-132597;00;DR R W McCraw Inc;;Issued;2004-12-14;2005-12-31;Health Services;Physician/Surgeon;256;Unit;2733;HEATHER ST;VANCOUVER;BC;CA;V5Z 3J5;Fairview;000;103;2019-07-21T06:47:58-07:00;
05;906917;05-134858;00;(Ronald Silley);;Issued;2004-12-29;2005-12-31;Duplex;;;;;;VANCOUVER;BC;CA;;Mount Pleasant;000;100;2019-07-21T06:47:58-07:00;
05;907496;05-135437;00;Edward Yadlos;;Issued;2004-12-14;2005-12-31;Duplex;;;;;;VANCOUVER;BC;CA;;South Cambie;000;50;2019-07-21T06:47:58-07:00;
05;914585;05-142494;00;David L New-Small (David New-Small);;Gone Out of Business;;;Secondary Suite - Phase Out *Historic*;;;;;;VANCOUVER;BC;CA;;Kitsilano;000;;2019-07-21T06:47:58-07:00;
05;957431;05-183752;00;Canadian Tire Stores;;Pending;;;Retail Dealer;;;;;;VANCOUVER;BC;CA;V5Z2T7;Mount Pleasant;000;;2019-07-21T06:47:58-07:00;
05;968397;05-194680;00;"36' Boat ""Urchin"" (Mr/Mrs Bell)";;Issued;2005-11-01;2005-12-31;Live-aboards;;;;;;VANCOUVER;BC;CA;V6G3E7;Downtown;000;1225;2019-07-21T06:47:58-07:00;
05;968398;05-194681;00;"50' liveaboard ""Jiggery Pokery"" (Mr/Mrs Burden)";;Issued;2005-11-01;2005-12-31;Live-aboards;;;;;;VANCOUVER;BC;CA;V6G3E7;Downtown;000;781;2019-07-21T06:47:58-07:00;
05;968405;05-194688;00;"32'5"" Liveaboard ""Firewater"" (Mr/Mrs Gallagher)";;Issued;2005-11-01;2005-12-31;Live-aboards;;;;;;VANCOUVER;BC;CA;V6G3E7;Downtown;000;781;2019-07-21T06:47:58-07:00;
05;968436;05-194719;00;"37' Liveaboard-""Brand XXX"" (Mr/Mrs Harvey)";;Issued;2005-11-01;2005-12-31;Live-aboards;;;;;;VANCOUVER;BC;CA;V6G3E7;Downtown;000;1225;2019-07-21T06:47:58-07:00;
05;968444;05-194727;00;"31' 7""Liveaboard-""Royal Palm"" (Mr/Mrs Starkell)";;Issued;2005-11-01;2005-12-31;Live-aboards;;;;;;VANCOUVER;BC;CA;V6G3E7;Downtown;000;1225;2019-07-21T06:47:58-07:00;
05;968523;05-194804;00;"36' 4""Liveaboard-""Karma"" (Mr/Mrs Rowse)";;Issued;2005-11-01;2005-12-31;Live-aboards;;;;;;VANCOUVER;BC;CA;V6G3E7;Downtown;000;1225;2019-07-21T06:47:58-07:00;
10;1409453;10-102261;00;Dino Bordignon & Lucia Bordignon;;Issued;2009-12-07;2010-12-31;One-Family Dwelling;;;;;;VANCOUVER;BC;;;Hastings-Sunrise;000;58;2019-07-21T06:48:00-07:00;
10;1409580;10-102388;00;(Ronald Silley);;Issued;2010-01-07;2010-12-31;Duplex;;;;;;VANCOUVER;BC;CA;;Mount Pleasant;000;116;2019-07-21T06:48:00-07:00;
10;1411478;10-104286;00;Peter G Lee & Faith H Lee;;Issued;2010-01-04;2010-12-31;One-Family Dwelling;;;;;;VANCOUVER;BC;CA;;Kensington-Cedar Cottage;000;58;2019-07-21T06:48:00-07:00;
10;1413929;10-106737;00;Barry Sauser & Carla Borton;;Issued;2010-01-08;2010-12-31;Apartment House Strata;;;;;;VANCOUVER;BC;CA;V6E 4N1;Downtown;000;58;2019-07-21T06:48:00-07:00;
12;1649176;12-100493;00;Michael Chan & Sau Chan;;Issued;2012-01-31;2012-12-31;One-Family Dwelling;;;;;;VANCOUVER;BC;CA;;Kerrisdale;000;61;2019-07-21T06:48:01-07:00;
12;1649349;12-100665;00;Amy W Ng (Amy Ng);;Issued;2011-12-06;2012-12-31;One-Family Dwelling;;;;;;VANCOUVER;BC;CA;;West Point Grey;000;61;2019-07-21T06:48:01-07:00;
12;1659050;12-109750;00;442745 BC Ltd;;Issued;2011-12-08;2012-12-31;Apartment House Strata;;;;;;VANCOUVER;BC;CA;V6E 3Z8;West End;000;183;2019-07-21T06:48:01-07:00;
11;1530686;11-104674;00;Jules Du Mont;;Issued;2011-03-03;2011-12-31;Multiple Dwelling;;;;;;VANCOUVER;BC;CA;;Kitsilano;000;160;2019-07-21T06:48:00-07:00;
11;1533587;11-107575;00;442745 BC Ltd;;Issued;2010-12-02;2011-12-31;Apartment House Strata;;;;;;VANCOUVER;BC;CA;V6E 3Z8;West End;000;180;2019-07-21T06:48:00-07:00;
11;1538092;11-112062;00;Terrise Mathers & Arthur Schmale;;Pending;;;Duplex;;;;;;VANCOUVER;BC;CA;;Kitsilano;000;;2019-07-21T06:48:00-07:00;
11;1571774;11-145701;00;(Marian Svac);Mario Painting;Issued;2010-12-02;2011-12-31;Painter;;;;;;VANCOUVER;BC;CA;;West End;000;124;2019-07-21T06:48:01-07:00;
01;435962;01-120176;00;Beacon Heating & Cooling Ltd;;Gone Out of Business;;;Plumber & Gas Contractor;;1;Unit;9079;Shaughnessy St;VANCOUVER;BC;;V6P 6R9;Marpole;000;;2019-07-21T06:47:56-07:00;
01;436559;01-120773;00;Lantern Lighting Ltdi;;Issued;2001-02-05;2001-12-31;Retail Dealer;Furnishings;;;512;W BROADWAY;VANCOUVER;BC;CA;V5Z  1E9;Fairview;000;93;2019-07-21T06:47:56-07:00;
01;445673;01-129884;00;Brian Baxter (Brian Baxter);;Issued;2001-02-19;2001-12-31;Office;Design Company;;;;;VANCOUVER;BC;CA;V5T 2M2;Mount Pleasant;000;93;2019-07-21T06:47:56-07:00;
01;452293;01-136504;00;(James Stroughton);Nomad Protection/Nomad Events;Gone Out of Business;;;Personal Services;Body Guard/Protection;404;Unit;1150;JERVIS ST;VANCOUVER;BC;;V6E 2C8;West End;000;;2019-07-21T06:47:56-07:00;
01;454609;01-138817;00;Fidelity Realty Ltd;;Issued;2001-02-21;2001-12-31;Real Estate Dealer;;;;5052;VICTORIA DR;VANCOUVER;BC;;V5P 3T8;Kensington-Cedar Cottage;000;93;2019-07-21T06:47:56-07:00;
01;459604;01-143778;00;(James Stroughton);Nomad Protection/Nomad Events;Gone Out of Business;;;Referral Services;;404;Unit;1150;JERVIS ST;VANCOUVER;BC;;V6E 2C8;West End;000;;2019-07-21T06:47:56-07:00;
06;998225;06-127773;00;Brian Baxter (Brian Baxter);;Issued;2006-03-13;2006-12-31;Office;Design Company;;;;;VANCOUVER;BC;CA;;Mount Pleasant;000;126;2019-07-21T06:47:59-07:00;
06;1006979;06-136489;00;(Marian Svac);Mario Painting;Issued;2006-01-10;2006-12-31;Painter;;;;;;VANCOUVER;BC;CA;;West End;000;106;2019-07-21T06:47:59-07:00;
06;1072763;06-199334;00;Liveaboard-42'-Gray Whale (Mr/Mrs Dersch);;Issued;2006-08-31;2006-12-31;Live-aboards;;;;;;VANCOUVER;BC;CA;V6G3E7;Downtown;000;1430;2019-07-21T06:47:59-07:00;
06;1072773;06-199344;00;"37' Liveaboard-""Cumberland Mist"" (Andrew Wilkinson)";;Issued;2006-08-31;2006-12-31;Live-aboards;;;;;;VANCOUVER;BC;CA;V6G3E7;Downtown;000;877;2019-07-21T06:47:59-07:00;
06;1072776;06-199347;00;"43' liveaboard-""La Mia Marchessa"" (Mr/Mrs Marchessault)";;Issued;2006-09-07;2006-12-31;Live-aboards;;;;;;VANCOUVER;BC;CA;V6G3E7;Downtown;000;1430;2019-07-21T06:47:59-07:00;
06;1072781;06-199352;00;"26'11"" liveaboard-""Cariboo"" (Mr/Mrs McCune)";;Issued;2006-08-31;2006-12-31;Live-aboards;;;;;;VANCOUVER;BC;CA;V6G3E7;Downtown;000;1136;2019-07-21T06:47:59-07:00;
06;1072785;06-199356;00;"39'6"" Liveaboard-""Xanadu"" (Mr/Mrs Ogden)";;Issued;2006-08-31;2006-12-31;Live-aboards;;;;;;VANCOUVER;BC;CA;V6G3E7;Downtown;000;1010;2019-07-21T06:47:59-07:00;
07;1078444;07-101714;00;Canada Life Assurance Co;;Issued;2006-12-28;2007-12-31;Office;Insurance Company;;;;;VANCOUVER;BC;CA;V6E 4N4;Downtown;000;126;2019-07-21T06:47:59-07:00;
00;338241;00-126024;00;Hornby Developments Ltd;;Gone Out of Business;;;Contractor;Building;1100;Unit;938;Howe St;VANCOUVER;BC;;V6Z 1N9;Downtown;000;;2019-07-21T06:47:56-07:00;
00;342947;00-130673;00;(Marian Svac);Mario Painting;Issued;1999-12-29;2000-12-31;Painter;;216;Apt;1500;Pendrell;VANCOUVER;BC;CA;V5G 3A5;West End;000;91;2019-07-21T06:47:56-07:00;
00;347845;00-135570;00;Freshness Naturally Restaurant Ltd;;Issued;2000-01-25;2000-12-31;Ltd Service Food Establishment;;;;1075;Howe St;VANCOUVER;BC;;V6Z 1P6;Downtown;000;332;2019-07-21T06:47:56-07:00;
00;374457;00-162179;00;David L New-Small (David New-Small);;Issued;2000-03-20;2000-12-31;Multiple Dwelling;;;;;;VANCOUVER;BC;CA;;Mount Pleasant;000;189;2019-07-21T06:47:56-07:00;
00;381281;00-348733;00;Lantern Lighting Ltdi;;Issued;2000-02-18;2000-12-31;Retail Dealer;Furnishings;;;512;W BROADWAY;VANCOUVER;BC;CA;V5Z  1E9;Fairview;000;91;2019-07-21T06:47:56-07:00;
98;170479;98-209915;00;(Atenogenes Solamillo);Justin's Electrical Services;Issued;1998-03-09;1998-12-31;Electrical Contractor;;;;3227;WOODLAND DRIVE;VANCOUVER;BC;;V5N 3R5;Kensington-Cedar Cottage;000;88;2019-07-21T06:47:55-07:00;
98;173654;98-213087;00;(Ronald Silley);;Issued;1998-06-11;1998-12-31;Duplex;;;;;;VANCOUVER;BC;CA;;Mount Pleasant;000;93;2019-07-21T06:47:55-07:00;
98;181424;98-220593;00;Nam Quoc Tran (Nam Tran);Linda Beauty Centre;Gone Out of Business;;;Esthetician *Historic*;;U5;Unit;601;W BROADWAY;VANCOUVER;BC;CA;V5Z 4C2;Fairview;000;88;2019-07-21T06:47:55-07:00;
98;186705;98-225867;00;Terence McGee & Rob Coll;Sun City Tanning;Issued;1998-04-21;1998-12-31;Tanning Salon;;203;Unit;888;BURRARD ST;VANCOUVER;BC;CA;V6Z 1X9;Downtown;000;166;2019-07-21T06:47:55-07:00;
98;192579;98-231736;00;Nam Quoc Tran (Nam Tran);Linda Beauty Salon;Issued;1998-08-06;1998-12-31;Health and Beauty;;U5;Unit;601;W BROADWAY;VANCOUVER;BC;CA;V5Z 4C2;Fairview;000;88;2019-07-21T06:47:55-07:00;
01;427020;01-111235;00;Peter A Thompson & Elizabeth A Thompson;;Gone Out of Business;;;One-Family Dwelling;;;;;;VANCOUVER;BC;;;Riley Park;000;;2019-07-21T06:47:56-07:00;
98;177170;98-216593;00;David L New-Small (David New-Small);;Issued;1998-03-27;1998-12-31;Multiple Dwelling;;;;;;VANCOUVER;BC;CA;;Mount Pleasant;000;176;2019-07-21T06:47:55-07:00;
98;177466;98-216889;00;Vancouver Seventh Day Adventist Church;;Issued;1998-03-25;1998-12-31;Multiple Dwelling;;;;;;VANCOUVER;BC;;;Oakridge;000;160;2019-07-21T06:47:55-07:00;
97;126;97-100124;00;Diamond Fast Food Ltd;;Cancelled;;;Vending Machines;;;;7;HASTINGS;VANCOUVER;BC;CA;V6B 1G4;;000;;2019-07-21T06:47:53-07:00;
97;224;97-100222;00;(HARRY HSU);;Cancelled;;;Vending Machines;;;;725;52ND;VANCOUVER;BC;CA;V6P 1G5;;000;;2019-07-21T06:47:53-07:00;
97;329;97-100327;00;M L VENDING;;Gone Out of Business;;;Vending Machines;;;;7216;MAIN;VANCOUVER;BC;CA;V5X 3J4;;000;;2019-07-21T06:47:53-07:00;
97;365;97-100363;00;MONTY ENTERPRISES LTD;;Cancelled;;;Vending Machines;;;;1O1O;BROADWAY;VANCOUVER;BC;CA;V6H 1E6;;000;;2019-07-21T06:47:53-07:00;
97;406;97-100404;00;(IRENE PAWLUS);;Cancelled;;;Vending Machines;;;;4408;ARBUTUS;VANCOUVER;BC;CA;V6J 4A2;;000;;2019-07-21T06:47:53-07:00;
97;578;97-100576;00;VISUAL INNOVATIONS LTD;;Cancelled;;;Vending Machines;;;;1633A;2ND;VANCOUVER;BC;CA;V6J 1H3;;000;;2019-07-21T06:47:53-07:00;
97;618;97-100616;00;YIPS ENTERPRISES CO;;Cancelled;;;Vending Machines;;;;1238;58TH;VANCOUVER;BC;CA;V6P 1W1;;000;;2019-07-21T06:47:53-07:00;
97;9025;97-044834;00;(RONALD KNOEDLER);Rfk Specialty Merchandise;Gone Out of Business;;1997-12-31;Office;Mail Order;104;Unit;1049;CHILCO ST;VANCOUVER;BC;;V6G 2R7;West End;000;;2019-07-21T06:47:53-07:00;
97;33468;97-038266;00;Hornby Developments Ltd;;Issued;1997-04-08;1997-12-31;Contractor;Building;1100;Unit;938;Howe St;VANCOUVER;BC;;V6Z 1N9;Downtown;000;104;2019-07-21T06:47:54-07:00;
97;20681;97-048277;00;Frank Yun Fook Leung;Frank Sos Delivery Service;Issued;1997-09-18;1997-12-31;Moving/Transfer Service;Other;;;714;JACKSON AV;VANCOUVER;BC;;V6A 3B9;Strathcona;000;115;2019-07-21T06:47:54-07:00;
00;381300;00-348752;00;(Kambiz Ebrahimi);Travel Access;Issued;2000-01-14;2000-12-31;Retail Dealer;;10;Unit;555;W HASTINGS ST;VANCOUVER;BC;CA;V6B 4N4;Downtown;000;91;2019-07-21T06:47:56-07:00;
01;416788;01-101096;00;Beverley & Ken Teng;Eaming Education Research;Gone Out of Business;;;Instruction;Other;;;2849;E 42ND AV;VANCOUVER;BC;CA;V5R 2Y3;Killarney;000;;2019-07-21T06:47:56-07:00;
01;421452;01-105699;00;Canadian Cheque Cashing Ltd;;Issued;2001-02-07;2001-12-31;Cheque Cashing *Historic*;;;;;;VANCOUVER;BC;CA;V6A 1N5;Downtown;000;93;2019-07-21T06:47:56-07:00;
01;422677;01-106897;00;Terence McGee & Rob Coll;Sun City Tanning;Issued;2001-03-07;2001-12-31;Tanning Salon;;203;Unit;888;BURRARD ST;VANCOUVER;BC;CA;V6Z 1X9;Downtown;000;174;2019-07-21T06:47:56-07:00;
98;164095;98-203551;00;Professional Integrated Insurance Services Ltd;;Issued;1998-04-29;1998-12-31;Office;Insurance Agent;103;Unit;644;SW MARINE DRIVE;VANCOUVER;BC;CA;V6P 5Y1;Marpole;000;98;2019-07-21T06:47:55-07:00;
98;173119;98-212552;00;Terrise Mathers & Arthur Schmale;;Pending;;;Duplex;;;;;;VANCOUVER;BC;CA;;Kitsilano;000;;2019-07-21T06:47:55-07:00;
04;863805;04-537195;00;"37' Liveaboard-""Cumberland Mist"" (Andrew Wilkinson)";;Issued;2004-07-27;2004-12-31;Live-aboards;;;;;;VANCOUVER;BC;CA;V6G3E7;Downtown;000;756;2019-07-21T06:47:58-07:00;
04;863815;04-537205;00;">37' Liveaboard-""Fortuna"" (Mr/Mrs Kirby)";;Issued;2004-07-27;2004-12-31;Live-aboards;;;;;;VANCOUVER;BC;CA;V6G3E7;Downtown;000;1351;2019-07-21T06:47:58-07:00;
04;863816;04-537206;00;"31' 7""Liveaboard-""Royal Palm"" (Mr/Mrs Starkell)";;Issued;2004-07-27;2004-12-31;Live-aboards;;;;;;VANCOUVER;BC;CA;V6G3E7;Downtown;000;1225;2019-07-21T06:47:58-07:00;
05;877125;05-105165;00;Dino Bordignon & Lucia Bordignon;;Issued;2004-12-06;2005-12-31;One-Family Dwelling;;;;;;VANCOUVER;BC;;;Hastings-Sunrise;000;50;2019-07-21T06:47:58-07:00;
05;889280;05-117278;00;Canadian Cheque Cashing Ltd;;Gone Out of Business;;;Money Services;Cheque Cashing;;;;;VANCOUVER;BC;CA;V6A 1N5;Downtown;000;;2019-07-21T06:47:58-07:00;
04;804293;04-036611;00;DR R W McCraw Inc;;Issued;2003-12-15;2004-12-31;Health Services;Physician/Surgeon;256;Unit;2733;HEATHER ST;VANCOUVER;BC;CA;V5Z 3J5;Fairview;000;100;2019-07-21T06:47:58-07:00;
04;805909;04-038135;00;Brian Baxter (Brian Baxter);;Issued;2004-01-21;2004-12-31;Office;Design Company;;;;;VANCOUVER;BC;CA;V5T 2M2;Mount Pleasant;000;100;2019-07-21T06:47:58-07:00;
06;980845;06-110476;00;Terrise Mathers & Arthur Schmale;;Issued;2006-02-14;2006-12-31;Duplex;;;;;;VANCOUVER;BC;CA;;Kitsilano;000;71;2019-07-21T06:47:58-07:00;
02;640688;02-462756;00;"36' Boat ""Urchin"" (Mr/Mrs Bell)";;Issued;2002-09-12;2002-12-31;Live-aboards;;;;;;VANCOUVER;BC;CA;V6G3E7;Downtown;000;1093;2019-07-21T06:47:57-07:00;
02;640713;02-462781;00;Liveaboard-44'-Catalina (Mr/Mrs Donovan);;Issued;2002-09-12;2002-12-31;Live-aboards;;;;;;VANCOUVER;BC;CA;V6G3E7;Downtown;000;1205;2019-07-21T06:47:57-07:00;
02;640725;02-462793;00;"43' liveaboard-""La Mia Marchessa"" (Mr/Mrs Marchessault)";;Issued;2002-09-12;2002-12-31;Live-aboards;;;;;;VANCOUVER;BC;CA;V6G3E7;Downtown;000;1205;2019-07-21T06:47:57-07:00;
02;640728;02-462796;00;"38'5"" Liveaboard-""Deva"" (Mr/Mrs McKay)";;Issued;2002-09-12;2002-12-31;Live-aboards;;;;;;VANCOUVER;BC;CA;V6G3E7;Downtown;000;1205;2019-07-21T06:47:57-07:00;
02;640750;02-462818;00;"39'6"" Liveaboard-""Xanadu"" (Mr/Mrs Ogden)";;Issued;2002-09-12;2002-12-31;Live-aboards;;;;;;VANCOUVER;BC;CA;V6G3E7;Downtown;000;617;2019-07-21T06:47:57-07:00;
02;640761;02-462829;00;"36'4"" Liveaboard-""Nor's Ark"" (Mr/Mrs Stewart)";;Issued;2002-09-12;2002-12-31;Live-aboards;;;;;;VANCOUVER;BC;CA;V6G3E7;Downtown;000;1205;2019-07-21T06:47:57-07:00;
07;1118240;07-141429;00;Gail Hegquist & Gordon Chamberlin;;Issued;2007-01-16;2007-12-31;One-Family Dwelling;;;;;;VANCOUVER;BC;CA;;Hastings-Sunrise;000;53;2019-07-21T06:47:59-07:00;
07;1118358;07-141547;00;Barry Sauser & Carla Borton;;Issued;2006-12-18;2007-12-31;Apartment House Strata;;;;;;VANCOUVER;BC;CA;V6E 4N1;Downtown;000;53;2019-07-21T06:47:59-07:00;
08;1183333;08-102801;00;Dino Bordignon & Lucia Bordignon;;Issued;2007-12-10;2008-12-31;One-Family Dwelling;;;;;;VANCOUVER;BC;;;Hastings-Sunrise;000;54;2019-07-21T06:47:59-07:00;
08;1183582;08-103050;00;Amy W Ng (Amy Ng);;Issued;2008-01-25;2008-12-31;One-Family Dwelling;;;;;;VANCOUVER;BC;CA;;West Point Grey;000;54;2019-07-21T06:47:59-07:00;
08;1185651;08-105119;00;Peter G Lee & Faith H Lee;;Issued;2008-01-02;2008-12-31;One-Family Dwelling;;;;;;VANCOUVER;BC;CA;;Kensington-Cedar Cottage;000;54;2019-07-21T06:47:59-07:00;
08;1188598;08-108064;00;Barry Sauser & Carla Borton;;Issued;2008-01-03;2008-12-31;Apartment House Strata;;;;;;VANCOUVER;BC;CA;V6E 4N1;Downtown;000;54;2019-07-21T06:47:59-07:00;
06;974236;06-103891;00;Vancouver Tim's Electrical Contractors Ltd;;Issued;2006-02-06;2006-12-31;Electrical Contractor;;;;;;VANCOUVER;BC;;;Hastings-Sunrise;000;106;2019-07-21T06:47:58-07:00;
12;1680837;12-131318;00;Canada Life Assurance Co;;Issued;2012-01-11;2012-12-31;Office;Insurance Company;;;;;VANCOUVER;BC;CA;V6E 4N4;Downtown;000;143;2019-07-21T06:48:01-07:00;
12;1680936;12-131417;00;Brian Baxter (Brian Baxter);;Pending;;;Office;Design Company;;;;;VANCOUVER;BC;CA;;Mount Pleasant;0;;2019-07-21T06:48:01-07:00;
03;699258;03-412154;00;Fidelity Realty Ltd;;Issued;2002-12-11;2003-12-31;Real Estate Dealer;;;;5052;VICTORIA DR;VANCOUVER;BC;;V5P 3T8;Kensington-Cedar Cottage;000;97;2019-07-21T06:47:57-07:00;
03;756880;03-511094;00;"36' Boat ""Urchin"" (Mr/Mrs Bell)";;Issued;2003-09-19;2003-12-31;Live-aboards;;;;;;VANCOUVER;BC;CA;V6G3E7;Downtown;000;1093;2019-07-21T06:47:57-07:00;
03;756881;03-511095;00;"50' liveaboard ""Jiggery Pokery"" (Mr/Mrs Burden)";;Issued;2003-09-19;2003-12-31;Live-aboards;;;;;;VANCOUVER;BC;CA;V6G3E7;Downtown;000;715;2019-07-21T06:47:57-07:00;
03;756907;03-511121;00;"39'6"" Liveaboard-""Xanadu"" (Mr/Mrs Ogden)";;Issued;2003-09-19;2003-12-31;Live-aboards;;;;;;VANCOUVER;BC;CA;V6G3E7;Downtown;000;715;2019-07-21T06:47:57-07:00;
03;756910;03-511124;00;"42' Liveaboard-""Timberwind"" (Lynda Kirby)";;Issued;2003-09-19;2003-12-31;Live-aboards;;;;;;VANCOUVER;BC;CA;V6G3E7;Downtown;000;715;2019-07-21T06:47:57-07:00;
08;1220580;08-139937;00;Brian Baxter (Brian Baxter);;Issued;2008-01-03;2008-12-31;Office;Design Company;;;;;VANCOUVER;BC;CA;;Mount Pleasant;000;113;2019-07-21T06:47:59-07:00;
07;1235625;07-203206;00;"50' liveaboard ""Jiggery Pokery"" (Mr/Mrs Burden)";;Issued;2007-12-05;2007-12-31;Live-aboards;;;;;;VANCOUVER;BC;CA;V6G3E7;Downtown;000;1011;2019-07-21T06:47:59-07:00;
07;1235637;07-203217;00;Liveaboard-50'-Sunrise NY (Mr/Mrs Chernoff);;Issued;2007-12-05;2007-12-31;Live-aboards;;;;;;VANCOUVER;BC;CA;V6G3E7;Downtown;000;1523;2019-07-21T06:47:59-07:00;
07;1235638;07-203218;00;Liveaboard-42'-Gray Whale (Mr/Mrs Dersch);;Issued;2007-12-05;2007-12-31;Live-aboards;;;;;;VANCOUVER;BC;CA;V6G3E7;Downtown;000;1523;2019-07-21T06:47:59-07:00;
07;1235644;07-203222;00;"37' Liveaboard-""Brand XXX"" (Mr/Mrs Harvey)";;Issued;2007-12-05;2007-12-31;Live-aboards;;;;;;VANCOUVER;BC;CA;V6G3E7;Downtown;000;1381;2019-07-21T06:47:59-07:00;
07;1235646;07-203223;00;"37' Liveaboard-""Cumberland Mist"" (Andrew Wilkinson)";;Issued;2007-12-05;2007-12-31;Live-aboards;;;;;;VANCOUVER;BC;CA;V6G3E7;Downtown;000;1011;2019-07-21T06:47:59-07:00;
07;1235648;07-203225;00;">37' Liveaboard-""Fortuna"" (Mr/Mrs Kirby)";;Issued;2007-12-05;2007-12-31;Live-aboards;;;;;;VANCOUVER;BC;CA;V6G3E7;Downtown;000;1523;2019-07-21T06:47:59-07:00;
07;1235657;07-203233;00;"38' Liveaboard-""Slightly Vancouver"" (Mr/Mrs McClelland)";;Issued;2007-12-05;2007-12-31;Live-aboards;;;;;;VANCOUVER;BC;CA;V6G3E7;Downtown;000;1153;2019-07-21T06:47:59-07:00;
07;1235660;07-203236;00;"26'11"" liveaboard-""Cariboo"" (Mr/Mrs McCune)";;Issued;2007-12-05;2007-12-31;Live-aboards;;;;;;VANCOUVER;BC;CA;V6G3E7;Downtown;000;1210;2019-07-21T06:47:59-07:00;
07;1235662;07-203238;00;"26' 10' Liveaboard-""Sweet Pea"" (Mr/Mrs Mitchell)";;Issued;2007-12-05;2007-12-31;Live-aboards;;;;;;VANCOUVER;BC;CA;V6G3E7;Downtown;000;1210;2019-07-21T06:47:59-07:00;
07;1235666;07-203241;00;"42' Liveaboard-""Timberwind"" (Lynda Kirby)";;Issued;2007-12-05;2007-12-31;Live-aboards;;;;;;VANCOUVER;BC;CA;V6G3E7;Downtown;000;1153;2019-07-21T06:47:59-07:00;
08;1275043;08-190509;00;"37' Liveaboard-""Brand XXX"" (Mr/Mrs Harvey)";;Issued;2008-07-22;2008-12-31;Live-aboards;;;;;;VANCOUVER;BC;CA;V6G3E7;Downtown;000;1491;2019-07-21T06:47:59-07:00;
08;1275069;08-190534;00;"43' liveaboard-""La Mia Marchessa"" (Mr/Mrs Marchessault)";;Issued;2008-07-22;2008-12-31;Live-aboards;;;;;;VANCOUVER;BC;CA;V6G3E7;Downtown;000;1645;2019-07-21T06:47:59-07:00;
08;1275080;08-190545;00;"39'6"" Liveaboard-""Xanadu"" (Mr/Mrs Ogden)";;Issued;2008-07-22;2008-12-31;Live-aboards;;;;;;VANCOUVER;BC;CA;V6G3E7;Downtown;000;1321;2019-07-21T06:47:59-07:00;
08;1198976;08-118378;00;Vancouver Tim's Electrical Contractors Ltd;;Issued;2007-12-05;2008-12-31;Electrical Contractor;;;;;;VANCOUVER;BC;;;Hastings-Sunrise;000;113;2019-07-21T06:47:59-07:00;
02;583369;02-420737;00;Amy W Ng (Amy Ng);;Issued;2002-01-11;2002-12-31;One-Family Dwelling;;;;;;VANCOUVER;BC;CA;;West Point Grey;000;47;2019-07-21T06:47:57-07:00;
03;683437;03-396545;00;(Marian Svac);Mario Painting;Issued;2002-12-17;2003-12-31;Painter;;216;Apt;1500;Pendrell;VANCOUVER;BC;CA;V5G 3A5;West End;000;97;2019-07-21T06:47:57-07:00;
02;534086;02-101688;00;Canadian Cheque Cashing Ltd;;Issued;2002-01-08;2002-12-31;Money Services;Cheque Cashing;;;;;VANCOUVER;BC;CA;V6A 1N5;Downtown;000;95;2019-07-21T06:47:57-07:00;
01;505586;01-392055;00;Vancouver Tim's Electrical Contractors Ltd;;Issued;2001-01-30;2001-12-31;Electrical Contractor;;;;3126;E GEORGIA ST;VANCOUVER;BC;;V5K 2L1;Hastings-Sunrise;000;93;2019-07-21T06:47:57-07:00;
01;523552;01-410003;00;(Louis Hoch);;Issued;2001-11-19;2001-12-31;Vending Machines;;101;Unit;1001;W Broadway;VANCOUVER;BC;CA;V6H 4E4;;000;132;2019-07-21T06:47:57-07:00;
04;817427;04-048349;00;Terrise Mathers & Arthur Schmale;;Issued;2004-05-25;2004-12-31;Duplex;;;;;;VANCOUVER;BC;CA;;Kitsilano;000;89;2019-07-21T06:47:58-07:00;
04;818454;04-049259;00;Fidelity Realty Ltd;;Issued;2003-12-11;2004-12-31;Real Estate Dealer;;;;5052;VICTORIA DR;VANCOUVER;BC;;V5P 3T8;Kensington-Cedar Cottage;000;100;2019-07-21T06:47:58-07:00;
04;862537;04-535929;00;Liveaboard-42'-Gray Whale (Mr/Mrs Dersch);;Issued;2004-07-27;2004-12-31;Live-aboards;;;;;;VANCOUVER;BC;CA;V6G3E7;Downtown;000;1351;2019-07-21T06:47:58-07:00;
04;862552;04-535944;00;"43' liveaboard-""La Mia Marchessa"" (Mr/Mrs Marchessault)";;Issued;2004-07-27;2004-12-31;Live-aboards;;;;;;VANCOUVER;BC;CA;V6G3E7;Downtown;000;1351;2019-07-21T06:47:58-07:00;
04;862559;04-535951;00;"26'11"" liveaboard-""Cariboo"" (Mr/Mrs McCune)";;Issued;2004-07-27;2004-12-31;Live-aboards;;;;;;VANCOUVER;BC;CA;V6G3E7;Downtown;000;1073;2019-07-21T06:47:58-07:00;
04;862567;04-535959;00;"42' Liveaboard-""Timberwind"" (Lynda Kirby)";;Issued;2004-07-27;2004-12-31;Live-aboards;;;;;;VANCOUVER;BC;CA;V6G3E7;Downtown;000;882;2019-07-21T06:47:58-07:00;
01;436695;01-120909;00;(Ambassagir Tecle);;Gone Out of Business;2001-05-29;2001-12-31;Retail Dealer - Food;;;;2208;E HASTINGS ST;VANCOUVER;BC;CA;V5L 1V4;Grandview-Woodland;000;174;2019-07-21T06:47:56-07:00;
01;449221;01-133432;00;Professional Integrated Insurance Services Ltd;;Issued;2001-02-07;2001-12-31;Office;Insurance Agent;103;Unit;644;SW MARINE DRIVE;VANCOUVER;BC;CA;V6P 5Y1;Marpole;000;93;2019-07-21T06:47:56-07:00;
02;541699;02-109274;00;(Ernest Ho);Unihealth Therapeutic Centre;Issued;2002-01-30;2002-12-31;Health and Beauty;;200;Apt;1195;W BROADWAY;VANCOUVER;BC;;V6H 3X5;Fairview;000;178;2019-07-21T06:47:57-07:00;
02;549841;02-117392;00;(Ronald Silley);;Issued;2002-01-29;2002-12-31;Duplex;;;;;;VANCOUVER;BC;CA;;Mount Pleasant;000;94;2019-07-21T06:47:57-07:00;
02;550038;02-117589;00;Edward Yadlos;;Issued;2002-02-01;2002-12-31;Duplex;;;;;;VANCOUVER;BC;CA;;South Cambie;000;47;2019-07-21T06:47:57-07:00;
02;550348;02-117899;00;Terrise Mathers & Arthur Schmale;;Issued;2002-05-15;2002-12-31;Duplex;;;;;;VANCOUVER;BC;CA;;Kitsilano;000;253;2019-07-21T06:47:57-07:00;
01;471853;01-155997;00;David L New-Small (David New-Small);;Issued;2001-02-08;2001-12-31;Multiple Dwelling;;;;;;VANCOUVER;BC;CA;;Mount Pleasant;000;184;2019-07-21T06:47:57-07:00;
01;472553;01-156696;00;Jules Du Mont;;Issued;2001-01-23;2001-12-31;Multiple Dwelling;;;;;;VANCOUVER;BC;CA;;Kitsilano;000;92;2019-07-21T06:47:57-07:00;
02;560049;02-127582;00;Lantern Lighting Ltdi;;Issued;2002-02-20;2002-12-31;Retail Dealer;Furnishings;;;512;W BROADWAY;VANCOUVER;BC;CA;V5Z  1E9;Fairview;000;95;2019-07-21T06:47:57-07:00;
02;572249;02-139777;00;Terence McGee & Rob Coll;Sun City Tanning;Issued;2002-02-08;2002-12-31;Tanning Salon;;203;Unit;888;BURRARD ST;VANCOUVER;BC;CA;V6Z 1X9;Downtown;000;178;2019-07-21T06:47:57-07:00;
02;573541;02-141065;00;Canada Life Assurance Co;;Issued;2002-03-19;2002-12-31;Office;Insurance Company;;;;;VANCOUVER;BC;CA;V6E 4N4;Downtown;000;135;2019-07-21T06:47:57-07:00;
02;581333;02-148856;00;David L New-Small (David New-Small);;Issued;2002-01-22;2002-12-31;Secondary Suite - Phase Out *Historic*;;;;;;VANCOUVER;BC;CA;;Kitsilano;000;47;2019-07-21T06:47:57-07:00;
03;665218;03-378346;00;Canada Life Assurance Co;;Issued;2003-01-30;2003-12-31;Office;Insurance Company;;;;;VANCOUVER;BC;CA;V6E 4N4;Downtown;000;97;2019-07-21T06:47:57-07:00;
03;665521;03-378649;00;Brian Baxter (Brian Baxter);;Issued;2003-01-24;2003-12-31;Office;Design Company;;;;;VANCOUVER;BC;CA;V5T 2M2;Mount Pleasant;000;97;2019-07-21T06:47:57-07:00;
02;622834;02-459993;00;Michael Chan & Sau Chan;;Pending;;;One-Family Dwelling;;;;;;VANCOUVER;BC;CA;;Kerrisdale;000;;2019-07-21T06:47:57-07:00;
02;640690;02-462758;00;"50' liveaboard ""Jiggery Pokery"" (Mr/Mrs Burden)";;Issued;2002-09-12;2002-12-31;Live-aboards;;;;;;VANCOUVER;BC;CA;V6G3E7;Downtown;000;617;2019-07-21T06:47:57-07:00;
02;640720;02-462788;00;"36' 4""Liveaboard-""Karma"" (Mr/Mrs Rowse)";;Issued;2002-09-12;2002-12-31;Live-aboards;;;;;;VANCOUVER;BC;CA;V6G3E7;Downtown;000;1205;2019-07-21T06:47:57-07:00;
02;640726;02-462794;00;"38' Liveaboard-""Slightly Vancouver"" (Mr/Mrs McClelland)";;Issued;2002-09-12;2002-12-31;Live-aboards;;;;;;VANCOUVER;BC;CA;V6G3E7;Downtown;000;617;2019-07-21T06:47:57-07:00;
02;640752;02-462820;00;"42' Liveaboard-""Timberwind"" (Lynda Kirby)";;Issued;2002-09-12;2002-12-31;Live-aboards;;;;;;VANCOUVER;BC;CA;V6G3E7;Downtown;000;617;2019-07-21T06:47:57-07:00;
03;646909;03-360201;00;Michael Chan & Sau Chan;;Pending;;;One-Family Dwelling;;;;;;VANCOUVER;BC;CA;;Kerrisdale;000;;2019-07-21T06:47:57-07:00;
03;654329;03-367457;00;(Ronald Silley);;Issued;2003-01-13;2003-12-31;Duplex;;;;;;VANCOUVER;BC;CA;;Mount Pleasant;000;96;2019-07-21T06:47:57-07:00;
03;660718;03-373846;00;Amy W Ng (Amy Ng);;Issued;2003-01-07;2003-12-31;One-Family Dwelling;;;;;;VANCOUVER;BC;CA;;West Point Grey;000;48;2019-07-21T06:47:57-07:00;
01;457746;01-141922;00;DR R W McCraw Inc;;Issued;2001-03-05;2001-12-31;Health Services;Physician/Surgeon;256;Unit;2733;HEATHER ST;VANCOUVER;BC;CA;V5Z 3J5;Fairview;000;103;2019-07-21T06:47:56-07:00;
09;1330400;09-136452;00;(Marian Svac);Mario Painting;Issued;2008-12-30;2009-12-31;Painter;;;;;;VANCOUVER;BC;CA;;West End;000;116;2019-07-21T06:48:00-07:00;
09;1397372;09-242104;00;Liveaboard-50'-Sunrise NY (Mr/Mrs Chernoff);;Issued;2009-10-06;2009-12-31;Live-aboards;;;;;;VANCOUVER;BC;CA;V6G3E7;Downtown;000;1700;2019-07-21T06:48:00-07:00;
09;1397383;09-242115;00;"37' Liveaboard-""Brand XXX"" (Mr/Mrs Harvey)";;Issued;2009-10-06;2009-12-31;Live-aboards;;;;;;VANCOUVER;BC;CA;V6G3E7;Downtown;000;1541;2019-07-21T06:48:00-07:00;
09;1397387;09-242119;00;"43' liveaboard-""La Mia Marchessa"" (Mr/Mrs Marchessault)";;Issued;2009-10-06;2009-12-31;Live-aboards;;;;;;VANCOUVER;BC;CA;V6G3E7;Downtown;000;1700;2019-07-21T06:48:00-07:00;
09;1397389;09-242121;00;"38' Liveaboard-""Slightly Vancouver"" (Mr/Mrs McClelland)";;Issued;2009-10-06;2009-12-31;Live-aboards;;;;;;VANCOUVER;BC;CA;V6G3E7;Downtown;000;1383;2019-07-21T06:48:00-07:00;
09;1397401;09-242133;00;"42' Liveaboard-""Timberwind"" (Lynda Kirby)";;Issued;2009-10-06;2009-12-31;Live-aboards;;;;;;VANCOUVER;BC;CA;V6G3E7;Downtown;000;1383;2019-07-21T06:48:00-07:00;
10;1409177;10-101985;00;Michael Chan & Sau Chan;;Issued;2009-12-18;2010-12-31;One-Family Dwelling;;;;;;VANCOUVER;BC;CA;;Kerrisdale;000;58;2019-07-21T06:48:00-07:00;
10;1409667;10-102475;00;Amy W Ng (Amy Ng);;Issued;2009-12-10;2010-12-31;One-Family Dwelling;;;;;;VANCOUVER;BC;CA;;West Point Grey;000;58;2019-07-21T06:48:00-07:00;
10;1412174;10-104982;00;Jules Du Mont;;Issued;2010-02-02;2010-12-31;Multiple Dwelling;;;;;;VANCOUVER;BC;CA;;Kitsilano;000;116;2019-07-21T06:48:00-07:00;
10;1413847;10-106655;00;Gail Hegquist & Gordon Chamberlin;;Issued;2009-12-07;2010-12-31;One-Family Dwelling;;;;;;VANCOUVER;BC;CA;;Hastings-Sunrise;000;58;2019-07-21T06:48:00-07:00;
10;1415197;10-108005;00;442745 BC Ltd;;Issued;2009-12-08;2010-12-31;Apartment House Strata;;;;;;VANCOUVER;BC;CA;V6E 3Z8;West End;000;174;2019-07-21T06:48:00-07:00;
10;1417092;10-109880;00;Terrise Mathers & Arthur Schmale;;Issued;2010-10-08;2010-12-31;Duplex;;;;;;VANCOUVER;BC;CA;;Kitsilano;000;98;2019-07-21T06:48:00-07:00;
09;1311982;09-118089;00;Vancouver Tim's Electrical Contractors Ltd;;Issued;2008-12-08;2009-12-31;Electrical Contractor;;;;;;VANCOUVER;BC;;;Hastings-Sunrise;0;116;2019-07-21T06:48:00-07:00;
10;1424195;10-116973;00;Vancouver Tim's Electrical Contractors Ltd;;Issued;2009-12-01;2010-12-31;Electrical Contractor;;;;;;VANCOUVER;BC;;;Hastings-Sunrise;0;121;2019-07-21T06:48:00-07:00;
08;1206884;08-126281;00;(Marian Svac);Mario Painting;Issued;2007-12-06;2008-12-31;Painter;;;;;;VANCOUVER;BC;CA;;West End;000;113;2019-07-21T06:47:59-07:00;
07;1235622;07-203204;00;"36' Boat ""Urchin"" (Mr/Mrs Bell)";;Issued;2007-12-05;2007-12-31;Live-aboards;;;;;;VANCOUVER;BC;CA;V6G3E7;Downtown;000;1381;2019-07-21T06:47:59-07:00;
07;1235656;07-203232;00;"43' liveaboard-""La Mia Marchessa"" (Mr/Mrs Marchessault)";;Issued;2007-12-05;2007-12-31;Live-aboards;;;;;;VANCOUVER;BC;CA;V6G3E7;Downtown;000;1523;2019-07-21T06:47:59-07:00;
07;1235663;07-203239;00;"39'6"" Liveaboard-""Xanadu"" (Mr/Mrs Ogden)";;Issued;2007-12-05;2007-12-31;Live-aboards;;;;;;VANCOUVER;BC;CA;V6G3E7;Downtown;000;1153;2019-07-21T06:47:59-07:00;
07;1235670;07-203245;00;"36'4"" Liveaboard-""Nor's Ark"" (Mr/Mrs Stewart)";;Issued;2007-12-05;2007-12-31;Live-aboards;;;;;;VANCOUVER;BC;CA;V6G3E7;Downtown;000;1381;2019-07-21T06:47:59-07:00;
08;1275027;08-190494;00;"36' Boat ""Urchin"" (Mr/Mrs Bell)";;Issued;2008-07-22;2008-12-31;Live-aboards;;;;;;VANCOUVER;BC;CA;V6G3E7;Downtown;000;1491;2019-07-21T06:47:59-07:00;
08;1275032;08-190499;00;Liveaboard-50'-Sunrise NY (Mr/Mrs Chernoff);;Issued;2008-07-22;2008-12-31;Live-aboards;;;;;;VANCOUVER;BC;CA;V6G3E7;Downtown;000;1645;2019-07-21T06:47:59-07:00;
08;1275039;08-190505;00;"32'5"" Liveaboard ""Firewater"" (Mr/Mrs Gallagher)";;Issued;2008-07-22;2008-12-31;Live-aboards;;;;;;VANCOUVER;BC;CA;V6G3E7;Downtown;000;1167;2019-07-21T06:47:59-07:00;
08;1275078;08-190543;00;"26' 10' Liveaboard-""Sweet Pea"" (Mr/Mrs Mitchell)";;Issued;2008-07-22;2008-12-31;Live-aboards;;;;;;VANCOUVER;BC;CA;V6G3E7;Downtown;000;1307;2019-07-21T06:47:59-07:00;
08;1275081;08-190546;00;"36' 4""Liveaboard-""Karma"" (Mr/Mrs Rowse)";;Issued;2008-07-22;2008-12-31;Live-aboards;;;;;;VANCOUVER;BC;CA;V6G3E7;Downtown;000;1491;2019-07-21T06:47:59-07:00;
08;1275087;08-190551;00;"31' 7""Liveaboard-""Royal Palm"" (Mr/Mrs Starkell)";;Issued;2008-07-22;2008-12-31;Live-aboards;;;;;;VANCOUVER;BC;CA;V6G3E7;Downtown;000;1491;2019-07-21T06:47:59-07:00;
09;1295535;09-101684;00;Michael Chan & Sau Chan;;Issued;2009-01-02;2009-12-31;One-Family Dwelling;;;;;;VANCOUVER;BC;CA;;Kerrisdale;000;56;2019-07-21T06:48:00-07:00;
09;1295821;09-101970;00;Dino Bordignon & Lucia Bordignon;;Issued;2008-12-10;2009-12-31;One-Family Dwelling;;;;;;VANCOUVER;BC;;;Hastings-Sunrise;000;56;2019-07-21T06:48:00-07:00;
09;1297284;09-103431;00;Edward Yadlos;;Gone Out of Business;;;Duplex;;;;;;VANCOUVER;BC;CA;;South Cambie;000;;2019-07-21T06:48:00-07:00;
09;1298709;09-104856;00;Jules Du Mont;;Issued;2008-12-17;2009-12-31;Multiple Dwelling;;;;;;VANCOUVER;BC;CA;;Kitsilano;000;112;2019-07-21T06:48:00-07:00;
09;1303291;09-109428;00;Terrise Mathers & Arthur Schmale;;Issued;2009-07-28;2009-12-31;Duplex;;;;;;VANCOUVER;BC;CA;;Kitsilano;000;96;2019-07-21T06:48:00-07:00;
98;196426;98-235576;00;KWIK KAFE LTD;;Issued;1998-05-20;1998-12-31;Vending Machines;;;;1003;W 33rd Av;VANCOUVER;BC;CA;V6M 1A1;;000;840;2019-07-21T06:47:55-07:00;
98;198292;98-237441;00;Nam Quoc Tran (Nam Tran);Linda's Acupuncture Shiatsu;Gone Out of Business;;;Acupuncturist *Historic*;;U5;Unit;601;W BROADWAY;VANCOUVER;BC;CA;V5Z 4C2;Fairview;000;;2019-07-21T06:47:55-07:00;
98;198293;98-237442;00;Nam Quoc Tran (Nam Tran);Linda's Acupuncture Shiatsu;Cancelled;;;Health and Beauty;;U5;Unit;601;W BROADWAY;VANCOUVER;BC;CA;V5Z 4C2;Fairview;000;;2019-07-21T06:47:55-07:00;
00;324623;00-112409;00;Canadian Cheque Cashing Ltd;;Issued;1999-12-29;2000-12-31;Cheque Cashing *Historic*;;;;;;VANCOUVER;BC;CA;V6A 1N5;Downtown;000;91;2019-07-21T06:47:56-07:00;
00;325305;00-113090;00;Peter A Thompson & Elizabeth A Thompson;;Issued;2000-01-21;2000-12-31;One-Family Dwelling;;;;;;VANCOUVER;BC;;;Riley Park;000;39;2019-07-21T06:47:56-07:00;
00;329234;00-117018;00;Vancouver Tim's Electrical Contractors Ltd;;Gone Out of Business;2000-02-04;2000-12-31;Electrical Contractor;;;;3126;E GEORGIA ST;VANCOUVER;BC;;V5K 2L1;Hastings-Sunrise;000;91;2019-07-21T06:47:56-07:00;
00;332588;00-120371;00;Peter G Lee & Faith H Lee;;Issued;2000-02-02;2000-12-31;One-Family Dwelling;;;;;;VANCOUVER;BC;CA;;Kensington-Cedar Cottage;000;39;2019-07-21T06:47:56-07:00;
11;1544228;11-118189;00;Vancouver Tim's Electrical Contractors Ltd;;Issued;2010-12-09;2011-12-31;Electrical Contractor;;;;;;VANCOUVER;BC;;;Hastings-Sunrise;0;124;2019-07-21T06:48:00-07:00;
11;1551922;11-125869;00;Brian Baxter (Brian Baxter);;Issued;2011-03-04;2011-12-31;Office;Design Company;;;;;VANCOUVER;BC;CA;;Mount Pleasant;0;164;2019-07-21T06:48:01-07:00;
12;1650990;12-102302;00;Gail Hegquist & Gordon Chamberlin;;Issued;2011-12-08;2012-12-31;One-Family Dwelling;;;;;;VANCOUVER;BC;CA;;Hastings-Sunrise;000;61;2019-07-21T06:48:01-07:00;
12;1658317;12-109021;00;Barry Sauser & Carla Borton;;Issued;2012-01-12;2012-12-31;Apartment House Strata;;;;;;VANCOUVER;BC;CA;V6E 4N1;Downtown;000;61;2019-07-21T06:48:01-07:00;
12;1660280;12-110972;00;(Ronald Silley);;Issued;2011-12-16;2012-12-31;Duplex;;;;;;VANCOUVER;BC;CA;;Mount Pleasant;000;122;2019-07-21T06:48:01-07:00;
10;1512821;10-201089;00;Liveaboard-50'-Sunrise NY (Mr/Mrs Chernoff);;Pending;;;Live-aboards;;;;;;VANCOUVER;BC;CA;V6G3E7;Downtown;000;;2019-07-21T06:48:00-07:00;
10;1512838;10-201106;00;"31' 7""Liveaboard-""Royal Palm"" (Mr/Mrs Starkell)";;Pending;;;Live-aboards;;;;;;VANCOUVER;BC;CA;V6G3E7;Downtown;000;;2019-07-21T06:48:00-07:00;
11;1527931;11-101920;00;Dino Bordignon & Lucia Bordignon;;Gone Out of Business;;;One-Family Dwelling;;;;;;VANCOUVER;BC;;;Hastings-Sunrise;000;;2019-07-21T06:48:00-07:00;
11;1528147;11-102135;00;Amy W Ng (Amy Ng);;Issued;2010-11-22;2011-12-31;One-Family Dwelling;;;;;;VANCOUVER;BC;CA;;West Point Grey;000;60;2019-07-21T06:48:00-07:00;
11;1532346;11-106334;00;Barry Sauser & Carla Borton;;Issued;2010-12-16;2011-12-31;Apartment House Strata;;;;;;VANCOUVER;BC;CA;V6E 4N1;Downtown;000;60;2019-07-21T06:48:00-07:00;
97;10995;97-014607;00;Vancouver Tim's Electrical Contractors Ltd;;Issued;1997-03-03;1997-12-31;Electrical Contractor;;;;3126;E GEORGIA ST;VANCOUVER;BC;;V5K 2L1;Hastings-Sunrise;000;85;2019-07-21T06:47:53-07:00;
97;56016;97-057464;00;The Talk Of The Town Cabaret Ltd;The Talk Of The Town;Issued;1998-01-14;1998-12-31;Cabaret *Historic*;;;;23;W CORDOVA ST;VANCOUVER;BC;;V6B 1C8;Downtown;000;611;2019-07-21T06:47:54-07:00;
97;56881;97-023573;00;William S Tong (WILLIAM TONG);Tong Associates;Issued;1997-03-11;1997-12-31;Office;Architect;2;Unit;3615;W 19TH AV;VANCOUVER;BC;;V6S 1C5;Dunbar-Southlands;000;85;2019-07-21T06:47:54-07:00;
98;162486;98-201942;00;INT'L MONEY REMITTANCE URGENTE EXPRESS INC;;Issued;1998-02-06;1998-12-31;Moving/Transfer Service;Courier/Messenger;2;Floor;1281;KINGSWAY;VANCOUVER;BC;CA;V5V 3E2;Kensington-Cedar Cottage;000;88;2019-07-21T06:47:55-07:00;
97;100708;97-140425;00;(Ambassagir Tecle);;Issued;1997-10-24;1997-12-31;Retail Dealer - Food;;;;2208;E HASTINGS ST;VANCOUVER;BC;CA;V5L 1V4;Grandview-Woodland;000;85;2019-07-21T06:47:54-07:00;
97;100709;97-140426;00;(Anna-Maria Csapo);;Issued;1997-09-08;1997-12-31;Instruction;Music Teacher;416;Apt;518;MOBERLY ROAD;VANCOUVER;BC;;V5Z 4G3;Fairview;000;;2019-07-21T06:47:54-07:00;
97;101049;97-140766;00;ROUNDHOUSE PRODUCE & BAKERY LTD;;Issued;1997-10-21;1997-12-31;Ltd Service Food Establishment;;;;1286;PACIFIC BOULEVARD;VANCOUVER;BC;CA;V6Z 2V1;Downtown;000;155;2019-07-21T06:47:54-07:00;
97;101068;97-140785;00;Lantern Lighting Ltdi;;Pending;;;Retail Dealer;;;;512;W BROADWAY;VANCOUVER;BC;CA;V5Z  1E9;Fairview;000;;2019-07-21T06:47:54-07:00;
97;101808;97-141524;00;(Marian Svac);Mario Painting;Issued;1997-09-24;1997-12-31;Painter;;216;Apt;1500;Pendrell;VANCOUVER;BC;CA;V5G 3A5;West End;000;;2019-07-21T06:47:54-07:00;
97;103240;97-142956;00;(John Beverly);Hooter's Rock Shop;Issued;1997-10-15;1997-12-31;Retail Dealer;;MAIN;;752;E BROADWAY;VANCOUVER;BC;CA;V5T 1X9;Mount Pleasant;000;;2019-07-21T06:47:54-07:00;
97;104525;97-144240;00;Vancouver Seventh Day Adventist Church;;Issued;1997-11-06;1997-12-31;Soliciting For Charity;;;;5350;BAILLIE ST;VANCOUVER;BC;;V5Z 3M5;;000;10;2019-07-21T06:47:54-07:00;
00;340107;00-127833;00;Beacon Heating & Cooling Ltd;;Issued;2000-03-12;2000-12-31;Plumber & Gas Contractor;;1;Unit;9079;Shaughnessy St;VANCOUVER;BC;;V6P 6R9;Marpole;000;91;2019-07-21T06:47:56-07:00;
00;342413;00-130139;00;(James Stroughton);Nomad Protection/Nomad Events;Pending;;;Personal Services;Body Guard/Protection;404;Unit;1150;JERVIS ST;VANCOUVER;BC;;V6E 2C8;West End;000;;2019-07-21T06:47:56-07:00;
00;350752;00-138477;00;(James Stroughton);Nomad Protection/Nomad Events;Pending;;;Referral Services;;404;Unit;1150;JERVIS ST;VANCOUVER;BC;;V6E 2C8;West End;000;;2019-07-21T06:47:56-07:00;
04;791288;04-024940;00;Vancouver Tim's Electrical Contractors Ltd;;Issued;2003-12-23;2004-12-31;Electrical Contractor;;;;3126;E GEORGIA ST;VANCOUVER;BC;;V5K 2L1;Hastings-Sunrise;000;100;2019-07-21T06:47:58-07:00;
04;805485;04-037797;00;Canada Life Assurance Co;;Issued;2004-01-07;2004-12-31;Office;Insurance Company;;;;;VANCOUVER;BC;CA;V6E 4N4;Downtown;000;115;2019-07-21T06:47:58-07:00;
04;867412;04-540792;00;(Arpil Accola);;Issued;2004-08-12;2004-12-31;Apartment House Strata;;412;Unit;;;VANCOUVER;BC;CA;V6E 4C1;West End;000;50;2019-07-21T06:47:58-07:00;
04;868151;04-541531;00;442745 BC Ltd;;Issued;2004-08-23;2004-12-31;Apartment House Strata;;;;;;VANCOUVER;BC;CA;V6E 3Z8;West End;000;150;2019-07-21T06:47:58-07:00;
05;878426;05-106466;00;Peter G Lee & Faith H Lee;;Issued;2005-02-17;2005-12-31;One-Family Dwelling;;;;;;VANCOUVER;BC;CA;;Kensington-Cedar Cottage;000;70;2019-07-21T06:47:58-07:00;
05;888304;05-116325;00;Fidelity Realty Ltd;;Issued;2004-11-29;2005-12-31;Real Estate Dealer;;;;5052;VICTORIA DR;VANCOUVER;BC;;V5P 3T8;Kensington-Cedar Cottage;000;103;2019-07-21T06:47:58-07:00;
05;890127;05-118111;00;(Marian Svac);Mario Painting;Issued;2004-12-09;2005-12-31;Painter;;;;;;VANCOUVER;BC;CA;;West End;000;103;2019-07-21T06:47:58-07:00;
05;891234;05-119215;00;Canada Life Assurance Co;;Issued;2005-01-12;2005-12-31;Office;Insurance Company;;;;;VANCOUVER;BC;CA;V6E 4N4;Downtown;000;118;2019-07-21T06:47:58-07:00;
05;892394;05-120375;00;Freshness Naturally Restaurant Ltd;;Issued;2004-12-16;2005-12-31;Ltd Service Food Establishment;;;;1075;Howe St;VANCOUVER;BC;;V6Z 1P6;Downtown;000;375;2019-07-21T06:47:58-07:00;
03;699631;03-412527;00;Terence McGee & Rob Coll;Sun City Tanning;Issued;2003-04-11;2003-12-31;Tanning Salon;;203;Unit;888;BURRARD ST;VANCOUVER;BC;CA;V6Z 1X9;Downtown;000;202;2019-07-21T06:47:57-07:00;
03;756888;03-511102;00;Liveaboard-50'-Sunrise NY (Mr/Mrs Chernoff);;Issued;2003-09-19;2003-12-31;Live-aboards;;;;;;VANCOUVER;BC;CA;V6G3E7;Downtown;000;1205;2019-07-21T06:47:57-07:00;
03;756890;03-511104;00;Liveaboard-44'-Catalina (Mr/Mrs Donovan);;Issued;2003-09-19;2003-12-31;Live-aboards;;;;;;VANCOUVER;BC;CA;V6G3E7;Downtown;000;1205;2019-07-21T06:47:57-07:00;
03;756893;03-511107;00;"32'5"" Liveaboard ""Firewater"" (Mr/Mrs Gallagher)";;Issued;2003-09-19;2003-12-31;Live-aboards;;;;;;VANCOUVER;BC;CA;V6G3E7;Downtown;000;715;2019-07-21T06:47:57-07:00;
03;756895;03-511109;00;"36' 4""Liveaboard-""Karma"" (Mr/Mrs Rowse)";;Issued;2003-09-19;2003-12-31;Live-aboards;;;;;;VANCOUVER;BC;CA;V6G3E7;Downtown;000;1205;2019-07-21T06:47:57-07:00;
03;756899;03-511113;00;"43' liveaboard-""La Mia Marchessa"" (Mr/Mrs Marchessault)";;Issued;2003-09-19;2003-12-31;Live-aboards;;;;;;VANCOUVER;BC;CA;V6G3E7;Downtown;000;1205;2019-07-21T06:47:57-07:00;
03;756900;03-511114;00;"38' Liveaboard-""Slightly Vancouver"" (Mr/Mrs McClelland)";;Issued;2003-09-19;2003-12-31;Live-aboards;;;;;;VANCOUVER;BC;CA;V6G3E7;Downtown;000;715;2019-07-21T06:47:57-07:00;
03;756902;03-511116;00;"38'5"" Liveaboard-""Deva"" (Mr/Mrs McKay)";;Issued;2003-09-19;2003-12-31;Live-aboards;;;;;;VANCOUVER;BC;CA;V6G3E7;Downtown;000;1205;2019-07-21T06:47:57-07:00;
03;756905;03-511119;00;"26' 10' Liveaboard-""Sweet Pea"" (Mr/Mrs Mitchell)";;Issued;2003-09-19;2003-12-31;Live-aboards;;;;;;VANCOUVER;BC;CA;V6G3E7;Downtown;000;1093;2019-07-21T06:47:57-07:00;
03;756913;03-511127;00;"36'4"" Liveaboard-""Nor's Ark"" (Mr/Mrs Stewart)";;Issued;2003-09-19;2003-12-31;Live-aboards;;;;;;VANCOUVER;BC;CA;V6G3E7;Downtown;000;1205;2019-07-21T06:47:57-07:00;
04;813912;04-045108;00;Jules Du Mont;;Issued;2003-12-18;2004-12-31;Multiple Dwelling;;;;;;VANCOUVER;BC;CA;;Kitsilano;000;98;2019-07-21T06:47:58-07:00;
04;862526;04-535918;00;"36' Boat ""Urchin"" (Mr/Mrs Bell)";;Issued;2004-07-27;2004-12-31;Live-aboards;;;;;;VANCOUVER;BC;CA;V6G3E7;Downtown;000;1225;2019-07-21T06:47:58-07:00;
04;862528;04-535920;00;"50' liveaboard ""Jiggery Pokery"" (Mr/Mrs Burden)";;Issued;2004-07-27;2004-12-31;Live-aboards;;;;;;VANCOUVER;BC;CA;V6G3E7;Downtown;000;756;2019-07-21T06:47:58-07:00;
04;862539;04-535931;00;Liveaboard-44'-Catalina (Mr/Mrs Donovan);;Issued;2004-07-27;2004-12-31;Live-aboards;;;;;;VANCOUVER;BC;CA;V6G3E7;Downtown;000;1351;2019-07-21T06:47:58-07:00;
04;862541;04-535933;00;"32'5"" Liveaboard ""Firewater"" (Mr/Mrs Gallagher)";;Issued;2004-07-27;2004-12-31;Live-aboards;;;;;;VANCOUVER;BC;CA;V6G3E7;Downtown;000;756;2019-07-21T06:47:58-07:00;
04;862564;04-535956;00;"39'6"" Liveaboard-""Xanadu"" (Mr/Mrs Ogden)";;Issued;2004-07-27;2004-12-31;Live-aboards;;;;;;VANCOUVER;BC;CA;V6G3E7;Downtown;000;882;2019-07-21T06:47:58-07:00;
04;862572;04-535964;00;"36'4"" Liveaboard-""Nor's Ark"" (Mr/Mrs Stewart)";;Issued;2004-07-27;2004-12-31;Live-aboards;;;;;;VANCOUVER;BC;CA;V6G3E7;Downtown;000;1225;2019-07-21T06:47:58-07:00;
03;687446;03-400552;00;Lantern Lighting Ltdi;;Issued;2003-01-14;2003-12-31;Retail Dealer;Furnishings;;;512;W BROADWAY;VANCOUVER;BC;CA;V5Z  1E9;Fairview;000;97;2019-07-21T06:47:57-07:00;
03;691010;03-404138;00;Freshness Naturally Restaurant Ltd;;Issued;2003-01-21;2003-12-31;Ltd Service Food Establishment;;;;1075;Howe St;VANCOUVER;BC;;V6Z 1P6;Downtown;000;355;2019-07-21T06:47:57-07:00;
03;692358;03-405486;00;Jules Du Mont;;Issued;2002-12-17;2003-12-31;Multiple Dwelling;;;;;;VANCOUVER;BC;CA;;Kitsilano;000;96;2019-07-21T06:47:57-07:00;
03;694560;03-407688;00;David L New-Small (David New-Small);;Issued;2003-03-06;2003-12-31;Secondary Suite - Phase Out *Historic*;;;;;;VANCOUVER;BC;CA;;Kitsilano;000;68;2019-07-21T06:47:57-07:00;
05;902872;05-130853;00;(Arpil Accola);;Issued;2004-12-15;2005-12-31;Apartment House Strata;;412;Unit;;;VANCOUVER;BC;CA;V6E 4C1;West End;000;50;2019-07-21T06:47:58-07:00;
05;902962;05-130943;00;442745 BC Ltd;;Issued;2004-12-06;2005-12-31;Apartment House Strata;;;;;;VANCOUVER;BC;CA;V6E 3Z8;West End;000;150;2019-07-21T06:47:58-07:00;
05;909685;05-137606;00;Terrise Mathers & Arthur Schmale;;Issued;2005-03-17;2005-12-31;Duplex;;;;;;VANCOUVER;BC;CA;;Kitsilano;000;90;2019-07-21T06:47:58-07:00;
05;968401;05-194684;00;Liveaboard-42'-Gray Whale (Mr/Mrs Dersch);;Issued;2005-11-01;2005-12-31;Live-aboards;;;;;;VANCOUVER;BC;CA;V6G3E7;Downtown;000;1351;2019-07-21T06:47:58-07:00;
05;968402;05-194685;00;"26' 10' Liveaboard-""Sweet Pea"" (Mr/Mrs Mitchell)";;Issued;2005-11-01;2005-12-31;Live-aboards;;;;;;VANCOUVER;BC;CA;V6G3E7;Downtown;000;1073;2019-07-21T06:47:58-07:00;
05;968404;05-194687;00;Liveaboard-44'-Catalina (Mr/Mrs Donovan);;Issued;2005-11-01;2005-12-31;Live-aboards;;;;;;VANCOUVER;BC;CA;V6G3E7;Downtown;000;1351;2019-07-21T06:47:58-07:00;
05;968414;05-194697;00;"38'5"" Liveaboard-""Deva"" (Mr/Mrs McKay)";;Issued;2005-11-01;2005-12-31;Live-aboards;;;;;;VANCOUVER;BC;CA;V6G3E7;Downtown;000;1351;2019-07-21T06:47:58-07:00;
05;968422;05-194705;00;"38' Liveaboard-""Slightly Vancouver"" (Mr/Mrs McClelland)";;Issued;2005-11-01;2005-12-31;Live-aboards;;;;;;VANCOUVER;BC;CA;V6G3E7;Downtown;000;907;2019-07-21T06:47:58-07:00;
05;968423;05-194706;00;"26'11"" liveaboard-""Cariboo"" (Mr/Mrs McCune)";;Issued;2005-11-01;2005-12-31;Live-aboards;;;;;;VANCOUVER;BC;CA;V6G3E7;Downtown;000;1073;2019-07-21T06:47:58-07:00;
05;968438;05-194721;00;"36'4"" Liveaboard-""Nor's Ark"" (Mr/Mrs Stewart)";;Issued;2005-11-02;2005-12-31;Live-aboards;;;;;;VANCOUVER;BC;CA;V6G3E7;Downtown;000;1225;2019-07-21T06:47:58-07:00;
05;968441;05-194724;00;"43' liveaboard-""La Mia Marchessa"" (Mr/Mrs Marchessault)";;Cancelled;;;Live-aboards;;;;;;VANCOUVER;BC;CA;V6G3E7;Downtown;000;;2019-07-21T06:47:58-07:00;
05;968443;05-194726;00;"37' Liveaboard-""Cumberland Mist"" (Andrew Wilkinson)";;Issued;2005-11-01;2005-12-31;Live-aboards;;;;;;VANCOUVER;BC;CA;V6G3E7;Downtown;000;781;2019-07-21T06:47:58-07:00;
06;1007715;06-137218;00;Fidelity Realty Ltd;;Issued;2005-12-05;2006-12-31;Real Estate Dealer;;;;5052;VICTORIA DR;VANCOUVER;BC;;V5P 3T8;Kensington-Cedar Cottage;000;106;2019-07-21T06:47:59-07:00;
06;1072768;06-199339;00;"32'5"" Liveaboard ""Firewater"" (Mr/Mrs Gallagher)";;Issued;2006-08-31;2006-12-31;Live-aboards;;;;;;VANCOUVER;BC;CA;V6G3E7;Downtown;000;877;2019-07-21T06:47:59-07:00;
06;1072780;06-199351;00;"38'5"" Liveaboard-""Deva"" (Mr/Mrs McKay)";;Issued;2006-08-31;2006-12-31;Live-aboards;;;;;;VANCOUVER;BC;CA;V6G3E7;Downtown;000;1430;2019-07-21T06:47:59-07:00;
06;1072786;06-199357;00;"36' 4""Liveaboard-""Karma"" (Mr/Mrs Rowse)";;Issued;2006-08-31;2006-12-31;Live-aboards;;;;;;VANCOUVER;BC;CA;V6G3E7;Downtown;000;1297;2019-07-21T06:47:59-07:00;
06;1072788;06-199359;00;"31' 7""Liveaboard-""Royal Palm"" (Mr/Mrs Starkell)";;Issued;2006-08-31;2006-12-31;Live-aboards;;;;;;VANCOUVER;BC;CA;V6G3E7;Downtown;000;1297;2019-07-21T06:47:59-07:00;
06;1072789;06-199360;00;"36'4"" Liveaboard-""Nor's Ark"" (Mr/Mrs Stewart)";;Issued;2006-08-31;2006-12-31;Live-aboards;;;;;;VANCOUVER;BC;CA;V6G3E7;Downtown;000;1297;2019-07-21T06:47:59-07:00;
06;979474;06-109108;00;Edward Yadlos;;Issued;2006-03-16;2006-12-31;Duplex;;;;;;VANCOUVER;BC;CA;;South Cambie;000;51;2019-07-21T06:47:58-07:00;
06;983888;06-113518;00;442745 BC Ltd;;Issued;2005-12-02;2006-12-31;Apartment House Strata;;;;;;VANCOUVER;BC;CA;V6E 3Z8;West End;000;153;2019-07-21T06:47:58-07:00;
06;985200;06-114830;00;Dino Bordignon & Lucia Bordignon;;Issued;2005-12-14;2006-12-31;One-Family Dwelling;;;;;;VANCOUVER;BC;;;Hastings-Sunrise;000;51;2019-07-21T06:47:58-07:00;
06;988426;06-118056;00;Gail Hegquist & Gordon Chamberlin;;Issued;2005-12-23;2006-12-31;One-Family Dwelling;;;;;;VANCOUVER;BC;CA;;Hastings-Sunrise;000;51;2019-07-21T06:47:58-07:00;
05;968439;05-194722;00;"42' Liveaboard-""Timberwind"" (Lynda Kirby)";;Issued;2005-11-01;2005-12-31;Live-aboards;;;;;;VANCOUVER;BC;CA;V6G3E7;Downtown;000;907;2019-07-21T06:47:58-07:00;
97;104709;97-144424;00;DENMAN SPORTS LTD;;Issued;1997-11-12;1997-12-31;Retail Dealer;;;;710;DENMAN ST;VANCOUVER;BC;CA;V6G 2L5;West End;000;85;2019-07-21T06:47:54-07:00;
98;130766;98-170259;00;(Kambiz Ebrahimi);Travel Access;Issued;1998-02-06;1998-12-31;Retail Dealer;;10;Unit;555;W HASTINGS ST;VANCOUVER;BC;CA;V6B 4N4;Downtown;000;88;2019-07-21T06:47:54-07:00;
98;130998;98-170490;00;(Anna-Maria Csapo);;Issued;1998-05-06;1998-12-31;Instruction;Music Teacher;416;Apt;518;MOBERLY ROAD;VANCOUVER;BC;;V5Z 4G3;Fairview;000;88;2019-07-21T06:47:54-07:00;
98;131813;98-171304;00;Mary Belandres & Danilo Mercado;MD Janitorial Services;Issued;1998-01-12;1998-12-31;Janitorial Services;;;;610;E 22ND AV;VANCOUVER;BC;CA;V5V 1V4;Riley Park;000;108;2019-07-21T06:47:54-07:00;
07;1093223;07-116445;00;Vancouver Tim's Electrical Contractors Ltd;;Issued;2006-12-14;2007-12-31;Electrical Contractor;;;;;;VANCOUVER;BC;;;Hastings-Sunrise;000;110;2019-07-21T06:47:59-07:00;
07;1114244;07-137433;00;Edward Yadlos;;Issued;2006-12-01;2007-12-31;Duplex;;;;;;VANCOUVER;BC;CA;;South Cambie;000;53;2019-07-21T06:47:59-07:00;
07;1115048;07-138237;00;Peter G Lee & Faith H Lee;;Issued;2007-01-04;2007-12-31;One-Family Dwelling;;;;;;VANCOUVER;BC;CA;;Kensington-Cedar Cottage;000;53;2019-07-21T06:47:59-07:00;
07;1115958;07-139147;00;Jules Du Mont;;Issued;2006-12-20;2007-12-31;Multiple Dwelling;;;;;;VANCOUVER;BC;CA;;Kitsilano;000;106;2019-07-21T06:47:59-07:00;
08;1184916;08-104384;00;Edward Yadlos;;Issued;2007-11-21;2008-12-31;Duplex;;;;;;VANCOUVER;BC;CA;;South Cambie;000;54;2019-07-21T06:47:59-07:00;
08;1188496;08-107962;00;Gail Hegquist & Gordon Chamberlin;;Issued;2008-01-18;2008-12-31;One-Family Dwelling;;;;;;VANCOUVER;BC;CA;;Hastings-Sunrise;000;54;2019-07-21T06:47:59-07:00;
08;1190264;08-109729;00;442745 BC Ltd;;Issued;2007-12-03;2008-12-31;Apartment House Strata;;;;;;VANCOUVER;BC;CA;V6E 3Z8;West End;000;162;2019-07-21T06:47:59-07:00;
08;1190979;08-110426;00;Terrise Mathers & Arthur Schmale;;Issued;2008-09-11;2008-12-31;Duplex;;;;;;VANCOUVER;BC;CA;;Kitsilano;000;94;2019-07-21T06:47:59-07:00;
02;538737;02-106312;00;Freshness Naturally Restaurant Ltd;;Issued;2002-02-06;2002-12-31;Ltd Service Food Establishment;;;;1075;Howe St;VANCOUVER;BC;;V6Z 1P6;Downtown;000;347;2019-07-21T06:47:57-07:00;
08;1182996;08-102465;00;Michael Chan & Sau Chan;;Issued;2007-12-20;2008-12-31;One-Family Dwelling;;;;;;VANCOUVER;BC;CA;;Kerrisdale;000;54;2019-07-21T06:47:59-07:00;
08;1183480;08-102948;00;(Ronald Silley);;Issued;2008-01-04;2008-12-31;Duplex;;;;;;VANCOUVER;BC;CA;;Mount Pleasant;000;108;2019-07-21T06:47:59-07:00;
08;1186466;08-105934;00;Jules Du Mont;;Issued;2008-01-08;2008-12-31;Multiple Dwelling;;;;;;VANCOUVER;BC;CA;;Kitsilano;000;108;2019-07-21T06:47:59-07:00;
02;566646;02-134178;00;Peter G Lee & Faith H Lee;;Issued;2002-02-01;2002-12-31;One-Family Dwelling;;;;;;VANCOUVER;BC;CA;;Kensington-Cedar Cottage;000;47;2019-07-21T06:47:57-07:00;
02;573951;02-141475;00;Brian Baxter (Brian Baxter);;Issued;2002-01-24;2002-12-31;Office;Design Company;;;;;VANCOUVER;BC;CA;V5T 2M2;Mount Pleasant;000;95;2019-07-21T06:47:57-07:00;
02;640703;02-462771;00;Liveaboard-50'-Sunrise NY (Mr/Mrs Chernoff);;Issued;2002-09-12;2002-12-31;Live-aboards;;;;;;VANCOUVER;BC;CA;V6G3E7;Downtown;000;1205;2019-07-21T06:47:57-07:00;
02;640705;02-462773;00;Liveaboard-42'-Gray Whale (Mr/Mrs Dersch);;Issued;2002-09-12;2002-12-31;Live-aboards;;;;;;VANCOUVER;BC;CA;V6G3E7;Downtown;000;1205;2019-07-21T06:47:57-07:00;
02;640715;02-462783;00;"32'5"" Liveaboard ""Firewater"" (Mr/Mrs Gallagher)";;Issued;2002-09-12;2002-12-31;Live-aboards;;;;;;VANCOUVER;BC;CA;V6G3E7;Downtown;000;617;2019-07-21T06:47:57-07:00;
02;640735;02-462803;00;"26'11"" liveaboard-""Cariboo"" (Mr/Mrs McCune)";;Issued;2002-09-12;2002-12-31;Live-aboards;;;;;;VANCOUVER;BC;CA;V6G3E7;Downtown;000;1093;2019-07-21T06:47:57-07:00;
02;640739;02-462807;00;"26' 10' Liveaboard-""Sweet Pea"" (Mr/Mrs Mitchell)";;Issued;2002-09-12;2002-12-31;Live-aboards;;;;;;VANCOUVER;BC;CA;V6G3E7;Downtown;000;1093;2019-07-21T06:47:57-07:00;
03;649286;03-362471;00;Peter G Lee & Faith H Lee;;Issued;2003-01-20;2003-12-31;One-Family Dwelling;;;;;;VANCOUVER;BC;CA;;Kensington-Cedar Cottage;000;48;2019-07-21T06:47:57-07:00;
03;655360;03-368488;00;Terrise Mathers & Arthur Schmale;;Issued;2003-05-08;2003-12-31;Duplex;;;;;;VANCOUVER;BC;CA;;Kitsilano;000;88;2019-07-21T06:47:57-07:00;
03;657994;03-371122;00;DR R W McCraw Inc;;Issued;2002-12-18;2003-12-31;Health Services;Physician/Surgeon;256;Unit;2733;HEATHER ST;VANCOUVER;BC;CA;V5Z 3J5;Fairview;000;97;2019-07-21T06:47:57-07:00;
03;658828;03-371956;00;Canadian Cheque Cashing Ltd;;Issued;2002-12-03;2003-12-31;Money Services;Cheque Cashing;;;;;VANCOUVER;BC;CA;V6A 1N5;Downtown;000;97;2019-07-21T06:47:57-07:00;
02;537707;02-105284;00;(Marian Svac);Mario Painting;Issued;2002-02-18;2002-12-31;Painter;;216;Apt;1500;Pendrell;VANCOUVER;BC;CA;V5G 3A5;West End;000;95;2019-07-21T06:47:57-07:00;
00;313280;00-101068;00;Canada Life Assurance Co;;Issued;2000-01-24;2000-12-31;Office;Insurance Company;;;;;VANCOUVER;BC;CA;V6E 4N4;Downtown;000;91;2019-07-21T06:47:56-07:00;
00;313834;00-101622;00;Brian Baxter (Brian Baxter);;Issued;2000-09-22;2000-12-31;Office;Design Company;;;;;VANCOUVER;BC;CA;V5T 2M2;Mount Pleasant;000;101;2019-07-21T06:47:56-07:00;
00;317881;00-105669;00;Professional Integrated Insurance Services Ltd;;Issued;2000-01-21;2000-12-31;Office;Insurance Agent;103;Unit;644;SW MARINE DRIVE;VANCOUVER;BC;CA;V6P 5Y1;Marpole;000;91;2019-07-21T06:47:56-07:00;
00;317918;00-105706;00;VICTORY & TRUSTFUL INFORMATION LTD;;Pending;;;Office;Consultant;204;Unit;8268;GRANVILLE ST;VANCOUVER;BC;CA;V6P 4Z4;Marpole;000;;2019-07-21T06:47:56-07:00;
00;328618;00-116403;00;Frank Yun Fook Leung;Frank Sos Delivery Service;Gone Out of Business;;;Moving/Transfer Service;Other;;;714;JACKSON AV;VANCOUVER;BC;;V6A 3B9;Strathcona;000;;2019-07-21T06:47:56-07:00;
00;336409;00-124192;00;(Ronald Silley);;Issued;2000-01-26;2000-12-31;Duplex;;;;;;VANCOUVER;BC;CA;;Mount Pleasant;000;90;2019-07-21T06:47:56-07:00;
00;336632;00-124415;00;Edward Yadlos;;Pending;;;Duplex;;;;;;VANCOUVER;BC;CA;;South Cambie;000;;2019-07-21T06:47:56-07:00;
00;336692;00-124475;00;(Ernest Ho);Unihealth Therapeutic Centre;Issued;2000-03-17;2000-12-31;Health and Beauty;;200;Apt;1195;W BROADWAY;VANCOUVER;BC;;V6H 3X5;Fairview;000;171;2019-07-21T06:47:56-07:00;
00;337507;00-125290;00;(Anna-Maria Csapo);;Gone Out of Business;;;Instruction;Music Teacher;416;Apt;518;MOBERLY ROAD;VANCOUVER;BC;;V5Z 4G3;Fairview;000;;2019-07-21T06:47:56-07:00;
00;337511;00-125294;00;Beverley & Ken Teng;Eaming Education Research;Pending;;;Instruction;Other;;;2849;E 42ND AV;VANCOUVER;BC;CA;V5R 2Y3;Killarney;000;;2019-07-21T06:47:56-07:00;
97;106506;97-146188;00;LORD BYNG SECONDARY SCHOOL;Lord Byng X-Mas Tree Lot;Issued;1997-12-17;1997-12-31;Retail Dealer;;;;3939;16TH;VANCOUVER;BC;CA;V64 3C9;;000;85;2019-07-21T06:47:54-07:00;
98;124215;98-163724;00;Canadian Cheque Cashing Ltd;;Issued;1998-03-25;1998-12-31;Cheque Cashing *Historic*;;;;;;VANCOUVER;BC;CA;V6A 1N5;Downtown;000;88;2019-07-21T06:47:54-07:00;
98;130223;98-169720;00;(Ernest Ho);Unihealth Therapeutic Centre;Issued;1998-02-06;1998-12-31;Health and Beauty;;200;Apt;1195;W BROADWAY;VANCOUVER;BC;;V6H 3X5;Fairview;000;166;2019-07-21T06:47:54-07:00;
98;130732;98-170225;00;Lantern Lighting Ltdi;;Issued;1998-04-29;1998-12-31;Retail Dealer;;;;512;W BROADWAY;VANCOUVER;BC;CA;V5Z  1E9;Fairview;000;88;2019-07-21T06:47:54-07:00;
98;130841;98-170333;00;(Anna-Maria Csapo);;Gone Out of Business;;;Instruction;Music Teacher;416;Apt;518;MOBERLY ROAD;VANCOUVER;BC;;V5Z 4G3;Kitsilano;000;;2019-07-21T06:47:54-07:00;
98;131007;98-170499;00;Beverley & Ken Teng;Eaming Education Research;Pending;;;Instruction;Other;;;2849;E 42ND AV;VANCOUVER;BC;CA;V5R 2Y3;Killarney;000;;2019-07-21T06:47:54-07:00;
98;136671;98-176159;00;(John Beverly);Hooter's Rock Shop;Cancelled;1998-02-02;1998-12-31;Retail Dealer;;MAIN;;752;E BROADWAY;VANCOUVER;BC;CA;V5T 1X9;Mount Pleasant;000;88;2019-07-21T06:47:54-07:00;
98;136738;98-176226;00;DENMAN SPORTS LTD;;Issued;1998-04-14;1998-12-31;Retail Dealer;;;;710;DENMAN ST;VANCOUVER;BC;CA;V6G 2L5;West End;000;93;2019-07-21T06:47:54-07:00;
98;139838;98-179319;00;(James Stroughton);Nomad Protection/Nomad Events;Pending;;;Personal Services;Body Guard/Protection;404;Unit;1150;JERVIS ST;VANCOUVER;BC;;V6E 2C8;West End;000;;2019-07-21T06:47:55-07:00;
01;434001;01-118216;00;Amy W Ng (Amy Ng);;Issued;2001-02-20;2001-12-31;One-Family Dwelling;;;;;;VANCOUVER;BC;CA;;West Point Grey;000;40;2019-07-21T06:47:56-07:00;
01;436574;01-120788;00;(Kambiz Ebrahimi);Travel Access;Gone Out of Business;;;Retail Dealer;;10;Unit;555;W HASTINGS ST;VANCOUVER;BC;CA;V6B 4N4;Downtown;000;;2019-07-21T06:47:56-07:00;
01;438766;01-122978;00;Freshness Naturally Restaurant Ltd;;Issued;2001-02-20;2001-12-31;Ltd Service Food Establishment;;;;1075;Howe St;VANCOUVER;BC;;V6Z 1P6;Downtown;000;339;2019-07-21T06:47:56-07:00;
01;445187;01-129398;00;Canada Life Assurance Co;;Issued;2001-03-05;2001-12-31;Office;Insurance Company;;;;;VANCOUVER;BC;CA;V6E 4N4;Downtown;000;103;2019-07-21T06:47:56-07:00;
01;449250;01-133461;00;VICTORY & TRUSTFUL INFORMATION LTD;;Gone Out of Business;;;Office;Consultant;204;Unit;8268;GRANVILLE ST;VANCOUVER;BC;CA;V6P 4Z4;Marpole;000;;2019-07-21T06:47:56-07:00;
01;452724;01-136935;00;(Marian Svac);Mario Painting;Issued;2001-01-10;2001-12-31;Painter;;216;Apt;1500;Pendrell;VANCOUVER;BC;CA;V5G 3A5;West End;000;93;2019-07-21T06:47:56-07:00;
97;23667;97-049283;00;(James Stroughton);Nomad Protection/Nomad Events;Issued;1997-08-06;1997-12-31;Personal Services;Body Guard/Protection;404;Unit;1150;JERVIS ST;VANCOUVER;BC;;V6E 2C8;West End;000;85;2019-07-21T06:47:54-07:00;
97;23668;97-049283;00;(James Stroughton);Nomad Protection/Nomad Events;Issued;1997-08-06;1997-12-31;Referral Services;;404;Unit;1150;JERVIS ST;VANCOUVER;BC;;V6E 2C8;West End;000;85;2019-07-21T06:47:54-07:00;
97;27119;97-003456;00;(Ernest Ho);Unihealth Therapeutic Centre;Issued;1997-02-05;1997-12-31;Health and Beauty;;200;Apt;1195;W BROADWAY;VANCOUVER;BC;;V6H 3X5;Fairview;000;160;2019-07-21T06:47:54-07:00;
97;17128;97-037207;00;Amy W Ng (Amy Ng);;Issued;1997-04-08;1997-12-31;One-Family Dwelling;;;;;;VANCOUVER;BC;CA;;West Point Grey;000;37;2019-07-21T06:47:53-07:00;
99;210570;99-100898;00;Frank Yun Fook Leung;Frank Sos Delivery Service;Pending;;;Moving/Transfer Service;Other;;;714;JACKSON AV;VANCOUVER;BC;;V6A 3B9;Strathcona;000;;2022-06-27T04:12:26-07:00;
99;217611;99-252118;00;Hornby Developments Ltd;;Issued;1999-04-06;1999-12-31;Contractor;Building;1100;Unit;938;Howe St;VANCOUVER;BC;;V6Z 1N9;Downtown;000;110;2022-06-27T04:12:26-07:00;
99;219443;99-253941;00;Vancouver Tim's Electrical Contractors Ltd;;Issued;1999-01-29;1999-12-31;Electrical Contractor;;;;3126;E GEORGIA ST;VANCOUVER;BC;;V5K 2L1;Hastings-Sunrise;000;90;2022-06-27T04:12:26-07:00;
99;219544;99-254042;00;(Atenogenes Solamillo);Justin's Electrical Services;Gone Out of Business;;;Electrical Contractor;;;;3227;WOODLAND DRIVE;VANCOUVER;BC;;V5N 3R5;Kensington-Cedar Cottage;000;;2022-06-27T04:12:26-07:00;
99;223563;99-258030;00;Peter A Thompson & Elizabeth A Thompson;;Issued;1999-01-28;1999-12-31;One-Family Dwelling;;;;;;VANCOUVER;BC;;;Riley Park;000;39;2022-06-27T04:12:27-07:00;
99;229016;99-263477;00;Amy W Ng (Amy Ng);;Issued;1999-01-08;1999-12-31;One-Family Dwelling;;;;;;VANCOUVER;BC;CA;;West Point Grey;000;39;2022-06-27T04:12:27-07:00;
99;234515;99-268970;00;Beverley & Ken Teng;Eaming Education Research;Pending;;;Instruction;Other;;;2849;E 42ND AV;VANCOUVER;BC;CA;V5R 2Y3;Killarney;000;;2022-06-27T04:12:27-07:00;
99;234798;99-269253;00;Mary Belandres & Danilo Mercado;MD Janitorial Services;Gone Out of Business;;;Janitorial Services;;;;610;E 22ND AV;VANCOUVER;BC;CA;V5V 1V4;Riley Park;000;;2022-06-27T04:12:27-07:00;
99;241608;99-276058;00;VICTORY & TRUSTFUL INFORMATION LTD;;Pending;;;Office;Consultant;204;Unit;8268;GRANVILLE ST;VANCOUVER;BC;CA;V6P 4Z4;Marpole;000;;2022-06-27T04:12:27-07:00;
99;247268;99-281620;00;David L New-Small (David New-Small);;Issued;1999-01-29;1999-12-31;Multiple Dwelling;;;;;;VANCOUVER;BC;CA;;Mount Pleasant;000;180;2022-06-27T04:12:27-07:00;
99;251807;99-286145;00;(Marian Svac);Mario Painting;Issued;1998-12-31;1999-12-31;Painter;;216;Apt;1500;Pendrell;VANCOUVER;BC;CA;V5G 3A5;West End;000;90;2022-06-27T04:12:27-07:00;
99;270889;99-305183;00;(Ambassagir Tecle);;Issued;1999-03-03;1999-12-31;Retail Dealer - Food;;;;2208;E HASTINGS ST;VANCOUVER;BC;CA;V5L 1V4;Grandview-Woodland;000;169;2022-06-27T04:12:27-07:00;
99;275806;99-310090;00;Freshness Naturally Restaurant Ltd;;Issued;1999-02-03;1999-12-31;Ltd Service Food Establishment;;;;1075;Howe St;VANCOUVER;BC;;V6Z 1P6;Downtown;000;328;2022-06-27T04:12:27-07:00;
99;231525;99-265986;00;(Ronald Silley);;Issued;1999-02-16;1999-12-31;Duplex;;;;;;VANCOUVER;BC;CA;;Mount Pleasant;000;90;2022-06-27T04:12:27-07:00;
99;231901;99-266362;00;Terrise Mathers & Arthur Schmale;;Pending;;;Duplex;;;;;;VANCOUVER;BC;CA;;Kitsilano;000;;2022-06-27T04:12:27-07:00;
99;232068;99-266529;00;Edward Yadlos;;Issued;1999-02-08;1999-12-31;Duplex;;;;;;VANCOUVER;BC;CA;;South Cambie;000;45;2022-06-27T04:12:27-07:00;
99;234508;99-268963;00;(Anna-Maria Csapo);;Issued;1999-03-03;1999-12-31;Instruction;Music Teacher;416;Apt;518;MOBERLY ROAD;VANCOUVER;BC;;V5Z 4G3;Fairview;000;90;2022-06-27T04:12:27-07:00;
99;248581;99-282932;00;(James Stroughton);Nomad Protection/Nomad Events;Issued;1999-05-19;1999-12-31;Personal Services;Body Guard/Protection;404;Unit;1150;JERVIS ST;VANCOUVER;BC;;V6E 2C8;West End;000;100;2022-06-27T04:12:27-07:00;
99;274376;99-308660;00;DENMAN SPORTS LTD;;Gone Out of Business;;;Retail Dealer;;;;710;DENMAN ST;VANCOUVER;BC;CA;V6G 2L5;West End;000;;2022-06-27T04:12:27-07:00;
99;278213;99-312474;00;(James Stroughton);Nomad Protection/Nomad Events;Issued;1999-05-19;1999-12-31;Referral Services;;404;Unit;1150;JERVIS ST;VANCOUVER;BC;;V6E 2C8;West End;000;100;2022-06-27T04:12:27-07:00;
98;140611;98-180092;00;(Marian Svac);Mario Painting;Issued;1998-01-26;1998-12-31;Painter;;216;Apt;1500;Pendrell;VANCOUVER;BC;CA;V5G 3A5;West End;000;88;2019-07-21T06:47:55-07:00;
98;143265;98-182743;00;Peter A Thompson & Elizabeth A Thompson;;Issued;1998-04-17;1998-12-31;One-Family Dwelling;;;;;;VANCOUVER;BC;;;Riley Park;000;48;2019-07-21T06:47:55-07:00;
98;147846;98-187318;00;(James Stroughton);Nomad Protection/Nomad Events;Issued;1998-04-14;1998-12-31;Referral Services;;404;Unit;1150;JERVIS ST;VANCOUVER;BC;;V6E 2C8;West End;000;;2019-07-21T06:47:55-07:00;
98;151346;98-190813;00;Amy W Ng (Amy Ng);;Issued;1998-03-02;1998-12-31;One-Family Dwelling;;;;;;VANCOUVER;BC;CA;;West Point Grey;000;38;2019-07-21T06:47:55-07:00;
98;155206;98-194670;00;Canada Life Assurance Co;;Issued;1998-04-01;1998-12-31;Office;Insurance Company;;;;;VANCOUVER;BC;CA;V6E 4N4;Downtown;000;88;2019-07-21T06:47:55-07:00;
97;5606;97-034403;00;Beacon Heating & Cooling Ltd;;Issued;1997-04-02;1997-12-31;Plumber & Gas Contractor;;1;Unit;9079;Shaughnessy St;VANCOUVER;BC;;V6P 6R9;Marpole;000;85;2019-07-21T06:47:53-07:00;
97;9605;97-044952;00;Canada Life Assurance Co;;Issued;1997-06-20;1997-12-31;Office;Insurance Company;;;;;VANCOUVER;BC;CA;V6E 4N4;Downtown;000;85;2019-07-21T06:47:53-07:00;
97;17523;97-047180;00;Peter A Thompson & Elizabeth A Thompson;;Issued;1997-08-06;1997-12-31;One-Family Dwelling;;;;;;VANCOUVER;BC;;;Riley Park;000;47;2019-07-21T06:47:53-07:00;
97;122;97-100120;00;Davidson Management Ltd;;Issued;1997-05-26;1997-12-31;Vending Machines;;;;3983;Dumfries St;VANCOUVER;BC;CA;V5H 5R3;;000;120;2019-07-21T06:47:53-07:00;
97;181;97-100179;00;(LOUISE GERAGHTY);;Cancelled;;;Vending Machines;;158;Unit;1184;DENMAN;VANCOUVER;BC;CA;V6G 2M9;;000;;2019-07-21T06:47:53-07:00;
97;252;97-100250;00;JUDITH ENTERPRISES LTD;;Cancelled;;;Vending Machines;;402;Unit;750;W Pender St;VANCOUVER;BC;CA;V6C 2T7;;000;;2019-07-21T06:47:53-07:00;
97;308;97-100306;00;LEWIS VENDING MACHINES LTD;;Cancelled;;;Vending Machines;;101;Unit;1520;RAND;VANCOUVER;BC;CA;V6P 3G2;;000;;2019-07-21T06:47:53-07:00;
97;416;97-100414;00;POLYWELL INVESTMENTS;;Cancelled;;;Vending Machines;;;;1389;58TH;VANCOUVER;BC;CA;V6P 1W3;;000;;2019-07-21T06:47:53-07:00;
97;624;97-100622;00;(HENRY ZIMMERMAN);;Cancelled;;;Vending Machines;;;;6770;HEATHER;VANCOUVER;BC;CA;V6P 3P4;;000;;2019-07-21T06:47:53-07:00;
06;992898;06-122516;00;DR R W McCraw Inc;;Inactive;2005-12-12;2006-12-31;Health Services;Physician/Surgeon;256;Unit;2733;HEATHER ST;VANCOUVER;BC;CA;V5Z 3J5;Fairview;000;106;2019-07-21T06:47:59-07:00;
06;996634;06-126184;00;Freshness Naturally Restaurant Ltd;;Issued;2006-01-04;2006-12-31;Ltd Service Food Establishment;;;;1075;Howe St;VANCOUVER;BC;;V6Z 1P6;Downtown;000;385;2019-07-21T06:47:59-07:00;
06;997683;06-127231;00;Canada Life Assurance Co;;Issued;2006-01-10;2006-12-31;Office;Insurance Company;;;;;VANCOUVER;BC;CA;V6E 4N4;Downtown;000;121;2019-07-21T06:47:59-07:00;
06;1072755;06-199326;00;"36' Boat ""Urchin"" (Mr/Mrs Bell)";;Issued;2006-08-31;2006-12-31;Live-aboards;;;;;;VANCOUVER;BC;CA;V6G3E7;Downtown;000;1297;2019-07-21T06:47:59-07:00;
06;1072761;06-199332;00;"50' liveaboard ""Jiggery Pokery"" (Mr/Mrs Burden)";;Issued;2006-08-31;2006-12-31;Live-aboards;;;;;;VANCOUVER;BC;CA;V6G3E7;Downtown;000;877;2019-07-21T06:47:59-07:00;
06;1072762;06-199333;00;Liveaboard-50'-Sunrise NY (Mr/Mrs Chernoff);;Issued;2006-08-31;2006-12-31;Live-aboards;;;;;;VANCOUVER;BC;CA;V6G3E7;Downtown;000;1430;2019-07-21T06:47:59-07:00;
06;1072772;06-199343;00;"37' Liveaboard-""Brand XXX"" (Mr/Mrs Harvey)";;Issued;2006-08-31;2006-12-31;Live-aboards;;;;;;VANCOUVER;BC;CA;V6G3E7;Downtown;000;1297;2019-07-21T06:47:59-07:00;
06;1072774;06-199345;00;">37' Liveaboard-""Fortuna"" (Mr/Mrs Kirby)";;Issued;2006-08-31;2006-12-31;Live-aboards;;;;;;VANCOUVER;BC;CA;V6G3E7;Downtown;000;1430;2019-07-21T06:47:59-07:00;
06;1072778;06-199349;00;"38' Liveaboard-""Slightly Vancouver"" (Mr/Mrs McClelland)";;Issued;2006-08-31;2006-12-31;Live-aboards;;;;;;VANCOUVER;BC;CA;V6G3E7;Downtown;000;1010;2019-07-21T06:47:59-07:00;
06;1072784;06-199355;00;"26' 10' Liveaboard-""Sweet Pea"" (Mr/Mrs Mitchell)";;Issued;2006-08-31;2006-12-31;Live-aboards;;;;;;VANCOUVER;BC;CA;V6G3E7;Downtown;000;1136;2019-07-21T06:47:59-07:00;
06;1072787;06-199358;00;"42' Liveaboard-""Timberwind"" (Lynda Kirby)";;Issued;2006-08-31;2006-12-31;Live-aboards;;;;;;VANCOUVER;BC;CA;V6G3E7;Downtown;000;1010;2019-07-21T06:47:59-07:00;
07;1078986;07-102256;00;Brian Baxter (Brian Baxter);;Issued;2007-02-23;2007-12-31;Office;Design Company;;;;;VANCOUVER;BC;CA;;Mount Pleasant;000;130;2019-07-21T06:47:59-07:00;
12;1683283;12-133762;00;(Marian Svac);Mario Painting;Issued;2011-12-13;2012-12-31;Painter;;;;;;VANCOUVER;BC;CA;;West End;000;126;2019-07-21T06:48:01-07:00;
12;1694382;12-144802;00;Rosedale On Robson Suite Hotel Inc;Rosie's On Robson;Gone Out of Business;2012-02-14;2012-12-31;Liquor Establishment Standard;Class 2  66-150 Seats;;;838;HAMILTON;VANCOUVER;BC;CA;V6B 5W4;Downtown;000;744;2019-07-21T06:48:01-07:00;
10;1436346;10-129068;00;Brian Baxter (Brian Baxter);;Issued;2010-01-22;2010-12-31;Office;Design Company;;;;;VANCOUVER;BC;CA;;Mount Pleasant;0;121;2019-07-21T06:48:00-07:00;
10;1439051;10-131773;00;(Marian Svac);Mario Painting;Issued;2009-12-23;2010-12-31;Painter;;;;;;VANCOUVER;BC;CA;;West End;000;121;2019-07-21T06:48:00-07:00;
10;1445047;10-137766;00;Fidelity Realty Ltd;;Gone Out of Business;;;Real Estate Dealer;;;;5052;VICTORIA DR;VANCOUVER;BC;;V5P 3T8;Kensington-Cedar Cottage;8;;2019-07-21T06:48:00-07:00;
09;1338364;09-144407;00;Fidelity Realty Ltd;;Issued;2008-11-28;2009-12-31;Real Estate Dealer;;;;5052;VICTORIA DR;VANCOUVER;BC;;V5P 3T8;Kensington-Cedar Cottage;8;116;2019-07-21T06:48:00-07:00;
09;1397343;09-242075;00;"36' Boat ""Urchin"" (Mr/Mrs Bell)";;Issued;2009-10-06;2009-12-31;Live-aboards;;;;;;VANCOUVER;BC;CA;V6G3E7;Downtown;000;1541;2019-07-21T06:48:00-07:00;
09;1397384;09-242116;00;"37' Liveaboard-""Cumberland Mist"" (Andrew Wilkinson)";;Issued;2009-10-06;2009-12-31;Live-aboards;;;;;;VANCOUVER;BC;CA;V6G3E7;Downtown;000;1224;2019-07-21T06:48:00-07:00;
09;1397386;09-242118;00;">37' Liveaboard-""Fortuna"" (Mr/Mrs Kirby)";;Issued;2009-10-06;2009-12-31;Live-aboards;;;;;;VANCOUVER;BC;CA;V6G3E7;Downtown;000;1700;2019-07-21T06:48:00-07:00;
09;1397400;09-242132;00;"36' 4""Liveaboard-""Karma"" (Mr/Mrs Rowse)";;Issued;2009-10-06;2009-12-31;Live-aboards;;;;;;VANCOUVER;BC;CA;V6G3E7;Downtown;000;1541;2019-07-21T06:48:00-07:00;
09;1397402;09-242134;00;"31' 7""Liveaboard-""Royal Palm"" (Mr/Mrs Starkell)";;Issued;2009-10-06;2009-12-31;Live-aboards;;;;;;VANCOUVER;BC;CA;V6G3E7;Downtown;000;1541;2019-07-21T06:48:00-07:00;
04;780087;04-015153;00;Michael Chan & Sau Chan;;Pending;;;One-Family Dwelling;;;;;;VANCOUVER;BC;CA;;Kerrisdale;000;;2019-07-21T06:47:58-07:00;
04;780500;04-015563;00;Amy W Ng (Amy Ng);;Issued;2004-01-19;2004-12-31;One-Family Dwelling;;;;;;VANCOUVER;BC;CA;;West Point Grey;000;49;2019-07-21T06:47:58-07:00;
04;781851;04-016913;00;Peter G Lee & Faith H Lee;;Issued;2004-02-02;2004-12-31;One-Family Dwelling;;;;;;VANCOUVER;BC;CA;;Kensington-Cedar Cottage;000;49;2019-07-21T06:47:58-07:00;
04;785691;04-019892;00;Freshness Naturally Restaurant Ltd;;Issued;2004-01-16;2004-12-31;Ltd Service Food Establishment;;;;1075;Howe St;VANCOUVER;BC;;V6Z 1P6;Downtown;000;365;2019-07-21T06:47:58-07:00;
04;796456;04-029295;00;(Ernest Ho);Unihealth Therapeutic Centre;Issued;2004-01-16;2004-12-31;Health and Beauty;;200;Apt;1195;W BROADWAY;VANCOUVER;BC;;V6H 3X5;Fairview;000;187;2019-07-21T06:47:58-07:00;
04;797741;04-030575;00;David L New-Small (David New-Small);;Issued;2003-12-10;2004-12-31;Secondary Suite - Phase Out *Historic*;;;;;;VANCOUVER;BC;CA;;Kitsilano;000;49;2019-07-21T06:47:58-07:00;
04;800112;04-032692;00;Terence McGee & Rob Coll;Sun City Tanning;Gone Out of Business;;;Tanning Salon;;203;Unit;888;BURRARD ST;VANCOUVER;BC;CA;V6Z 1X9;Downtown;000;;2019-07-21T06:47:58-07:00;
04;800674;04-033234;00;Canadian Cheque Cashing Ltd;;Issued;2003-12-29;2004-12-31;Money Services;Cheque Cashing;;;;;VANCOUVER;BC;CA;V6A 1N5;Downtown;000;122;2019-07-21T06:47:58-07:00;
04;801749;04-034137;00;(Marian Svac);Mario Painting;Issued;2003-12-15;2004-12-31;Painter;;216;Apt;1500;Pendrell;VANCOUVER;BC;CA;V5G 3A5;West End;000;100;2019-07-21T06:47:58-07:00;
05;902888;05-130869;00;Barry Sauser & Carla Borton;;Issued;2005-01-12;2005-12-31;Apartment House Strata;;;;;;VANCOUVER;BC;CA;V6E 4N1;Downtown;000;50;2019-07-21T06:47:58-07:00;
05;907910;05-135851;00;Jules Du Mont;;Issued;2005-02-10;2005-12-31;Multiple Dwelling;;;;;;VANCOUVER;BC;CA;;Kitsilano;000;100;2019-07-21T06:47:58-07:00;
05;910459;05-138378;00;Vancouver Tim's Electrical Contractors Ltd;;Issued;2004-12-15;2005-12-31;Electrical Contractor;;;;;;VANCOUVER;BC;;;Hastings-Sunrise;000;103;2019-07-21T06:47:58-07:00;
05;957432;05-183753;00;Canadian Tire Stores;;Pending;;;Auto Repairs;;;;;;VANCOUVER;BC;CA;V5Z2T7;Mount Pleasant;000;;2019-07-21T06:47:58-07:00;
05;968400;05-194683;00;Liveaboard-50'-Sunrise NY (Mr/Mrs Chernoff);;Issued;2005-11-01;2005-12-31;Live-aboards;;;;;;VANCOUVER;BC;CA;V6G3E7;Downtown;000;1351;2019-07-21T06:47:58-07:00;
05;968421;05-194704;00;"43' liveaboard-""La Mia Marchessa"" (Mr/Mrs Marchessault)";;Issued;2005-11-01;2005-12-31;Live-aboards;;;;;;VANCOUVER;BC;CA;V6G3E7;Downtown;000;1351;2019-07-21T06:47:58-07:00;
05;968440;05-194723;00;"39'6"" Liveaboard-""Xanadu"" (Mr/Mrs Ogden)";;Issued;2005-11-01;2005-12-31;Live-aboards;;;;;;VANCOUVER;BC;CA;V6G3E7;Downtown;000;907;2019-07-21T06:47:58-07:00;
08;1214513;08-133893;00;Fidelity Realty Ltd;;Issued;2007-12-28;2008-12-31;Real Estate Dealer;;;;5052;VICTORIA DR;VANCOUVER;BC;;V5P 3T8;Kensington-Cedar Cottage;000;113;2019-07-21T06:47:59-07:00;
08;1220416;08-139773;00;Canada Life Assurance Co;;Issued;2007-12-14;2008-12-31;Office;Insurance Company;;;;;VANCOUVER;BC;CA;V6E 4N4;Downtown;000;129;2019-07-21T06:47:59-07:00;
07;1235665;07-203240;00;"36' 4""Liveaboard-""Karma"" (Mr/Mrs Rowse)";;Issued;2007-12-05;2007-12-31;Live-aboards;;;;;;VANCOUVER;BC;CA;V6G3E7;Downtown;000;1381;2019-07-21T06:47:59-07:00;
07;1235667;07-203242;00;"31' 7""Liveaboard-""Royal Palm"" (Mr/Mrs Starkell)";;Issued;2007-12-05;2007-12-31;Live-aboards;;;;;;VANCOUVER;BC;CA;V6G3E7;Downtown;000;1381;2019-07-21T06:47:59-07:00;
08;1275030;08-190497;00;"50' liveaboard ""Jiggery Pokery"" (Mr/Mrs Burden)";;Issued;2008-07-22;2008-12-31;Live-aboards;;;;;;VANCOUVER;BC;CA;V6G3E7;Downtown;000;1167;2019-07-21T06:47:59-07:00;
08;1275033;08-190500;00;Liveaboard-42'-Gray Whale (Mr/Mrs Dersch);;Issued;2008-07-22;2008-12-31;Live-aboards;;;;;;VANCOUVER;BC;CA;V6G3E7;Downtown;000;1645;2019-07-21T06:47:59-07:00;
08;1275045;08-190511;00;"37' Liveaboard-""Cumberland Mist"" (Andrew Wilkinson)";;Issued;2008-07-22;2008-12-31;Live-aboards;;;;;;VANCOUVER;BC;CA;V6G3E7;Downtown;000;1167;2019-07-21T06:47:59-07:00;
08;1275067;08-190532;00;">37' Liveaboard-""Fortuna"" (Mr/Mrs Kirby)";;Issued;2008-07-22;2008-12-31;Live-aboards;;;;;;VANCOUVER;BC;CA;V6G3E7;Downtown;000;1645;2019-07-21T06:47:59-07:00;
08;1275071;08-190536;00;"38' Liveaboard-""Slightly Vancouver"" (Mr/Mrs McClelland)";;Issued;2008-07-22;2008-12-31;Live-aboards;;;;;;VANCOUVER;BC;CA;V6G3E7;Downtown;000;1321;2019-07-21T06:47:59-07:00;
08;1275085;08-190549;00;"42' Liveaboard-""Timberwind"" (Lynda Kirby)";;Issued;2008-07-22;2008-12-31;Live-aboards;;;;;;VANCOUVER;BC;CA;V6G3E7;Downtown;000;1321;2019-07-21T06:47:59-07:00;
09;1296048;09-102197;00;Amy W Ng (Amy Ng);;Issued;2009-01-02;2009-12-31;One-Family Dwelling;;;;;;VANCOUVER;BC;CA;;West Point Grey;000;56;2019-07-21T06:48:00-07:00;
09;1297955;09-104102;00;Peter G Lee & Faith H Lee;;Issued;2009-01-06;2009-12-31;One-Family Dwelling;;;;;;VANCOUVER;BC;CA;;Kensington-Cedar Cottage;000;56;2019-07-21T06:48:00-07:00;
09;1300623;09-106769;00;Barry Sauser & Carla Borton;;Issued;2008-12-10;2009-12-31;Apartment House Strata;;;;;;VANCOUVER;BC;CA;V6E 4N1;Downtown;000;56;2019-07-21T06:48:00-07:00;
09;1302094;09-108239;00;442745 BC Ltd;;Issued;2008-12-30;2009-12-31;Apartment House Strata;;;;;;VANCOUVER;BC;CA;V6E 3Z8;West End;000;168;2019-07-21T06:48:00-07:00;
10;1512819;10-201087;00;"36' Boat ""Urchin"" (Mr/Mrs Bell)";;Pending;;;Live-aboards;;;;;;VANCOUVER;BC;CA;V6G3E7;Downtown;000;;2019-07-21T06:48:00-07:00;
10;1512826;10-201094;00;"37' Liveaboard-""Cumberland Mist"" (Andrew Wilkinson)";;Pending;;;Live-aboards;;;;;;VANCOUVER;BC;CA;V6G3E7;Downtown;000;;2019-07-21T06:48:00-07:00;
10;1512829;10-201097;00;"38' Liveaboard-""Slightly Vancouver"" (Mr/Mrs McClelland)";;Pending;;;Live-aboards;;;;;;VANCOUVER;BC;CA;V6G3E7;Downtown;000;;2019-07-21T06:48:00-07:00;
10;1512836;10-201104;00;"42' Liveaboard-""Timberwind"" (Lynda Kirby)";;Pending;;;Live-aboards;;;;;;VANCOUVER;BC;CA;V6G3E7;Downtown;000;;2019-07-21T06:48:00-07:00;
11;1527658;11-101647;00;Michael Chan & Sau Chan;;Issued;2010-12-24;2011-12-31;One-Family Dwelling;;;;;;VANCOUVER;BC;CA;;Kerrisdale;000;60;2019-07-21T06:48:00-07:00;
11;1528054;11-102042;00;(Ronald Silley);;Issued;2010-12-17;2011-12-31;Duplex;;;;;;VANCOUVER;BC;CA;;Mount Pleasant;000;120;2019-07-21T06:48:00-07:00;
11;1529942;11-103930;00;Peter G Lee & Faith H Lee;;Issued;2011-01-20;2011-12-31;One-Family Dwelling;;;;;;VANCOUVER;BC;CA;;Kensington-Cedar Cottage;000;60;2019-07-21T06:48:00-07:00;
11;1532268;11-106256;00;Gail Hegquist & Gordon Chamberlin;;Issued;2010-12-07;2011-12-31;One-Family Dwelling;;;;;;VANCOUVER;BC;CA;;Hastings-Sunrise;000;60;2019-07-21T06:48:00-07:00;
07;1235643;07-203221;00;"32'5"" Liveaboard ""Firewater"" (Mr/Mrs Gallagher)";;Issued;2007-12-05;2007-12-31;Live-aboards;;;;;;VANCOUVER;BC;CA;V6G3E7;Downtown;000;1011;2019-07-21T06:47:59-07:00;
11;1551711;11-125658;00;Canada Life Assurance Co;;Issued;2010-12-14;2011-12-31;Office;Insurance Company;;;;;VANCOUVER;BC;CA;V6E 4N4;Downtown;000;141;2019-07-21T06:48:01-07:00;
11;1572867;11-146793;00;Rosedale On Robson Suite Hotel Inc;Rosie's On Robson;Issued;2011-01-18;2011-12-31;Liquor Establishment Standard;Class 2  66-150 Seats;;;838;HAMILTON;VANCOUVER;BC;CA;V6B 5W4;Downtown;000;671;2019-07-21T06:48:01-07:00;
12;1649895;12-101211;00;Peter G Lee & Faith H Lee;;Issued;2012-01-18;2012-12-31;One-Family Dwelling;;;;;;VANCOUVER;BC;CA;;Kensington-Cedar Cottage;000;61;2019-07-21T06:48:01-07:00;
12;1657690;12-108397;00;Jules Du Mont;;Issued;2011-12-14;2012-12-31;Multiple Dwelling;;;;;;VANCOUVER;BC;CA;;Kitsilano;000;122;2019-07-21T06:48:01-07:00;
12;1660741;12-111417;00;Terrise Mathers & Arthur Schmale;;Pending;;;Duplex;;;;;;VANCOUVER;BC;CA;;Kitsilano;000;;2019-07-21T06:48:01-07:00;
97;102084;97-141800;00;Professional Integrated Insurance Services Ltd;;Issued;1997-10-17;1997-12-31;Office;Insurance Agent;103;Unit;644;SW MARINE DRIVE;VANCOUVER;BC;CA;V6P 5Y1;Marpole;000;;2019-07-21T06:47:54-07:00;
97;102085;97-141801;00;DR R W McCraw Inc;;Issued;1997-10-17;1997-12-31;Health Services;Physician/Surgeon;256;Unit;2733;HEATHER ST;VANCOUVER;BC;CA;V5Z 3J5;Fairview;000;;2019-07-21T06:47:54-07:00;
97;102722;97-142438;00;Beverley & Ken Teng;Eaming Education Research;Issued;1997-10-06;1997-12-31;Instruction;Other;;;2849;E 42ND AV;VANCOUVER;BC;CA;V5R 2Y3;Killarney;000;85;2019-07-21T06:47:54-07:00;
97;103703;97-143419;00;CYRUS COMMUNICATION STRATEGIES INC;CYRUS CREATIONS;Issued;1997-11-14;1997-12-31;Retail Dealer - Food;;;;;;VANCOUVER;BC;CA;;Fairview;000;85;2019-07-21T06:47:54-07:00;
97;19394;97-007616;00;Jules Du Mont;;Issued;1997-02-17;1997-12-31;Multiple Dwelling;;;;;;VANCOUVER;BC;CA;;Kitsilano;000;84;2019-07-21T06:47:54-07:00;
97;19706;97-015104;00;(Atenogenes Solamillo);Justin's Electrical Services;Issued;1997-03-03;1997-12-31;Electrical Contractor;;;;3227;WOODLAND DRIVE;VANCOUVER;BC;;V5N 3R5;Kensington-Cedar Cottage;000;85;2019-07-21T06:47:54-07:00;
98;168520;98-207970;00;CYRUS COMMUNICATION STRATEGIES INC;CYRUS CREATIONS;Gone Out of Business;;;Retail Dealer - Food;;;;;;VANCOUVER;BC;CA;;Fairview;000;;2019-07-21T06:47:55-07:00;
98;170334;98-209770;00;Vancouver Tim's Electrical Contractors Ltd;;Issued;1998-02-02;1998-12-31;Electrical Contractor;;;;3126;E GEORGIA ST;VANCOUVER;BC;;V5K 2L1;Hastings-Sunrise;000;88;2019-07-21T06:47:55-07:00;
98;173336;98-212769;00;Edward Yadlos;;Pending;;;Duplex;;;;;;VANCOUVER;BC;CA;;South Cambie;000;;2019-07-21T06:47:55-07:00;
98;175857;98-215286;00;Freshness Naturally Restaurant Ltd;;Issued;1998-04-01;1998-12-31;Ltd Service Food Establishment;;;;1075;Howe St;VANCOUVER;BC;;V6Z 1P6;Downtown;000;322;2019-07-21T06:47:55-07:00;
98;176630;98-216054;00;Jules Du Mont;;Issued;1998-03-23;1998-12-31;Multiple Dwelling;;;;;;VANCOUVER;BC;CA;;Kitsilano;000;88;2019-07-21T06:47:55-07:00;
97;58026;97-035796;00;Vancouver Seventh Day Adventist Church;;Issued;1997-04-02;1997-12-31;Multiple Dwelling;;;;;;VANCOUVER;BC;;;Oakridge;000;159;2019-07-21T06:47:54-07:00;
98;164167;98-203623;00;VICTORY & TRUSTFUL INFORMATION LTD;;Issued;1998-02-25;1998-12-31;Office;Consultant;204;Unit;8268;GRANVILLE ST;VANCOUVER;BC;CA;V6P 4Z4;Marpole;000;88;2019-07-21T06:47:55-07:00;
98;165077;98-204530;00;Fidelity Realty Ltd;;Issued;1998-07-14;1998-12-31;Real Estate Dealer;;;;5052;VICTORIA DR;VANCOUVER;BC;;V5P 3T8;Kensington-Cedar Cottage;000;88;2019-07-21T06:47:55-07:00;
00;370436;00-158158;00;Terence McGee & Rob Coll;Sun City Tanning;Issued;2000-02-17;2000-12-31;Tanning Salon;;203;Unit;888;BURRARD ST;VANCOUVER;BC;CA;V6Z 1X9;Downtown;000;171;2019-07-21T06:47:56-07:00;
00;370933;00-158655;00;Fidelity Realty Ltd;;Issued;2000-02-25;2000-12-31;Real Estate Dealer;;;;5052;VICTORIA DR;VANCOUVER;BC;;V5P 3T8;Kensington-Cedar Cottage;000;91;2019-07-21T06:47:56-07:00;
00;371661;00-159383;00;DR R W McCraw Inc;;Issued;2000-01-31;2000-12-31;Health Services;Physician/Surgeon;256;Unit;2733;HEATHER ST;VANCOUVER;BC;CA;V5Z 3J5;Fairview;000;91;2019-07-21T06:47:56-07:00;
00;374136;00-161858;00;Jules Du Mont;;Issued;2000-01-11;2000-12-31;Multiple Dwelling;;;;;;VANCOUVER;BC;CA;;Kitsilano;000;90;2019-07-21T06:47:56-07:00;
00;374650;00-162372;00;Vancouver Seventh Day Adventist Church;;Issued;2000-02-07;2000-12-31;Multiple Dwelling;;;;;;VANCOUVER;BC;;;Oakridge;000;166;2019-07-21T06:47:56-07:00;
00;381442;00-348894;00;(Ambassagir Tecle);;Issued;2000-02-18;2000-12-31;Retail Dealer - Food;;;;2208;E HASTINGS ST;VANCOUVER;BC;CA;V5L 1V4;Grandview-Woodland;000;171;2019-07-21T06:47:56-07:00;
04;863812;04-537202;00;"37' Liveaboard-""Brand XXX"" (Mr/Mrs Harvey)";;Issued;2004-07-27;2004-12-31;Live-aboards;;;;;;VANCOUVER;BC;CA;V6G3E7;Downtown;000;1225;2019-07-21T06:47:58-07:00;
04;865412;04-538794;00;Dino Bordignon & Lucia Bordignon;;Issued;2004-07-12;2004-12-31;One-Family Dwelling;;;;;;VANCOUVER;BC;;;Hastings-Sunrise;000;50;2019-07-21T06:47:58-07:00;
04;866690;04-540070;00;Gail Hegquist & Gordon Chamberlin;;Issued;2004-08-03;2004-12-31;One-Family Dwelling;;;;;;VANCOUVER;BC;CA;;Hastings-Sunrise;000;50;2019-07-21T06:47:58-07:00;
04;867614;04-540994;00;Barry Sauser & Carla Borton;;Issued;2004-08-16;2004-12-31;Apartment House Strata;;;;;;VANCOUVER;BC;CA;V6E 4N1;Downtown;000;50;2019-07-21T06:47:58-07:00;
05;876951;05-104991;00;Michael Chan & Sau Chan;;Pending;;;One-Family Dwelling;;;;;;VANCOUVER;BC;CA;;Kerrisdale;000;;2019-07-21T06:47:58-07:00;
05;877294;05-105334;00;Amy W Ng (Amy Ng);;Issued;2004-11-29;2005-12-31;One-Family Dwelling;;;;;;VANCOUVER;BC;CA;;West Point Grey;000;50;2019-07-21T06:47:58-07:00;
05;880948;05-108988;00;Gail Hegquist & Gordon Chamberlin;;Issued;2005-01-12;2005-12-31;One-Family Dwelling;;;;;;VANCOUVER;BC;CA;;Hastings-Sunrise;000;50;2019-07-21T06:47:58-07:00;
05;893673;05-121654;00;Brian Baxter (Brian Baxter);;Issued;2005-01-05;2005-12-31;Office;Design Company;;;;;VANCOUVER;BC;CA;;Mount Pleasant;000;103;2019-07-21T06:47:58-07:00;
03;756889;03-511103;00;Liveaboard-42'-Gray Whale (Mr/Mrs Dersch);;Issued;2003-09-19;2003-12-31;Live-aboards;;;;;;VANCOUVER;BC;CA;V6G3E7;Downtown;000;1205;2019-07-21T06:47:57-07:00;
03;756903;03-511117;00;"26'11"" liveaboard-""Cariboo"" (Mr/Mrs McCune)";;Issued;2003-09-19;2003-12-31;Live-aboards;;;;;;VANCOUVER;BC;CA;V6G3E7;Downtown;000;1093;2019-07-21T06:47:57-07:00;
07;1100224;07-123410;00;Freshness Naturally Restaurant Ltd;;Cancelled;2007-01-05;2007-12-31;Ltd Service Food Establishment;;;;1075;Howe St;VANCOUVER;BC;;V6Z 1P6;Downtown;000;399;2019-07-21T06:47:59-07:00;
07;1102963;07-126141;00;(Marian Svac);Mario Painting;Issued;2007-01-05;2007-12-31;Painter;;;;;;VANCOUVER;BC;CA;;West End;000;110;2019-07-21T06:47:59-07:00;
06;978948;06-108583;00;(Ronald Silley);;Issued;2005-12-20;2006-12-31;Duplex;;;;;;VANCOUVER;BC;CA;;Mount Pleasant;000;102;2019-07-21T06:47:58-07:00;
06;979833;06-109467;00;Jules Du Mont;;Issued;2005-12-06;2006-12-31;Multiple Dwelling;;;;;;VANCOUVER;BC;CA;;Kitsilano;000;102;2019-07-21T06:47:58-07:00;
06;983803;06-113433;00;(Arpil Accola);;Issued;2006-01-03;2006-12-31;Apartment House Strata;;412;Unit;;;VANCOUVER;BC;CA;V6E 4C1;West End;000;51;2019-07-21T06:47:58-07:00;
06;983819;06-113449;00;Barry Sauser & Carla Borton;;Issued;2005-11-29;2006-12-31;Apartment House Strata;;;;;;VANCOUVER;BC;CA;V6E 4N1;Downtown;000;51;2019-07-21T06:47:58-07:00;
06;985048;06-114678;00;Michael Chan & Sau Chan;;Pending;;;One-Family Dwelling;;;;;;VANCOUVER;BC;CA;;Kerrisdale;000;;2019-07-21T06:47:58-07:00;
06;985341;06-114971;00;Amy W Ng (Amy Ng);;Issued;2005-11-18;2006-12-31;One-Family Dwelling;;;;;;VANCOUVER;BC;CA;;West Point Grey;000;51;2019-07-21T06:47:58-07:00;
06;986328;06-115958;00;Peter G Lee & Faith H Lee;;Issued;2006-01-24;2006-12-31;One-Family Dwelling;;;;;;VANCOUVER;BC;CA;;Kensington-Cedar Cottage;000;51;2019-07-21T06:47:58-07:00;
07;1110799;07-133972;00;Fidelity Realty Ltd;;Issued;2007-01-16;2007-12-31;Real Estate Dealer;;;;5052;VICTORIA DR;VANCOUVER;BC;;V5P 3T8;Kensington-Cedar Cottage;000;110;2019-07-21T06:47:59-07:00;
07;1112165;07-135354;00;Michael Chan & Sau Chan;;Issued;2007-01-02;2007-12-31;One-Family Dwelling;;;;;;VANCOUVER;BC;CA;;Kerrisdale;000;391;2019-07-21T06:47:59-07:00;
07;1112521;07-135710;00;Dino Bordignon & Lucia Bordignon;;Issued;2006-12-07;2007-12-31;One-Family Dwelling;;;;;;VANCOUVER;BC;;;Hastings-Sunrise;000;53;2019-07-21T06:47:59-07:00;
07;1112684;07-135873;00;(Ronald Silley);;Issued;2007-01-26;2007-12-31;Duplex;;;;;;VANCOUVER;BC;CA;;Mount Pleasant;000;106;2019-07-21T06:47:59-07:00;
07;1112797;07-135986;00;Amy W Ng (Amy Ng);;Issued;2006-11-22;2007-12-31;One-Family Dwelling;;;;;;VANCOUVER;BC;CA;;West Point Grey;000;53;2019-07-21T06:47:59-07:00;
07;1118327;07-141516;00;(Arpil Accola);;Gone Out of Business;2006-12-15;2007-12-31;Apartment House Strata;;412;Unit;;;VANCOUVER;BC;CA;V6E 4C1;West End;000;53;2019-07-21T06:47:59-07:00;
07;1118457;07-141646;00;442745 BC Ltd;;Issued;2006-12-05;2007-12-31;Apartment House Strata;;;;;;VANCOUVER;BC;CA;V6E 3Z8;West End;000;159;2019-07-21T06:47:59-07:00;
07;1120467;07-143642;00;Terrise Mathers & Arthur Schmale;;Issued;2007-04-05;2007-12-31;Duplex;;;;;;VANCOUVER;BC;CA;;Kitsilano;000;93;2019-07-21T06:47:59-07:00;
00;407507;00-374728;00;David L New-Small (David New-Small);;Issued;2000-07-05;2000-12-31;Secondary Suite - Phase Out *Historic*;;;;;;VANCOUVER;BC;CA;;Kitsilano;000;45;2019-07-21T06:47:56-07:00;
01;416382;01-100690;00;(Ernest Ho);Unihealth Therapeutic Centre;Issued;2001-02-14;2001-12-31;Health and Beauty;;200;Apt;1195;W BROADWAY;VANCOUVER;BC;;V6H 3X5;Fairview;000;174;2019-07-21T06:47:56-07:00;
03;663380;03-376508;00;Vancouver Tim's Electrical Contractors Ltd;;Issued;2003-01-17;2003-12-31;Electrical Contractor;;;;3126;E GEORGIA ST;VANCOUVER;BC;;V5K 2L1;Hastings-Sunrise;000;97;2019-07-21T06:47:57-07:00;
02;554941;02-122476;00;Vancouver Tim's Electrical Contractors Ltd;;Issued;2002-01-18;2002-12-31;Electrical Contractor;;;;3126;E GEORGIA ST;VANCOUVER;BC;;V5K 2L1;Hastings-Sunrise;000;95;2019-07-21T06:47:57-07:00;
02;555273;02-122808;00;DR R W McCraw Inc;;Issued;2002-03-11;2002-12-31;Health Services;Physician/Surgeon;256;Unit;2733;HEATHER ST;VANCOUVER;BC;CA;V5Z 3J5;Fairview;000;135;2019-07-21T06:47:57-07:00;
02;558357;02-125892;00;Jules Du Mont;;Issued;2002-01-25;2002-12-31;Multiple Dwelling;;;;;;VANCOUVER;BC;CA;;Kitsilano;000;94;2019-07-21T06:47:57-07:00;
02;558765;02-126300;00;Vancouver Seventh Day Adventist Church;;Issued;2002-02-06;2002-12-31;Multiple Dwelling;;;;;;VANCOUVER;BC;;;Oakridge;000;174;2019-07-21T06:47:57-07:00;
01;430152;01-114367;00;Peter G Lee & Faith H Lee;;Issued;2001-02-02;2001-12-31;One-Family Dwelling;;;;;;VANCOUVER;BC;CA;;Kensington-Cedar Cottage;000;40;2019-07-21T06:47:56-07:00;
04;811837;04-043293;00;(Ronald Silley);;Issued;2003-12-24;2004-12-31;Duplex;;;;;;VANCOUVER;BC;CA;;Mount Pleasant;000;98;2019-07-21T06:47:58-07:00;
04;813021;04-044361;00;Edward Yadlos;;Issued;2003-12-03;2004-12-31;Duplex;;;;;;VANCOUVER;BC;CA;;South Cambie;000;49;2019-07-21T06:47:58-07:00;
04;862536;04-535928;00;Liveaboard-50'-Sunrise NY (Mr/Mrs Chernoff);;Issued;2004-07-27;2004-12-31;Live-aboards;;;;;;VANCOUVER;BC;CA;V6G3E7;Downtown;000;1351;2019-07-21T06:47:58-07:00;
04;862553;04-535945;00;"38' Liveaboard-""Slightly Vancouver"" (Mr/Mrs McClelland)";;Issued;2004-07-27;2004-12-31;Live-aboards;;;;;;VANCOUVER;BC;CA;V6G3E7;Downtown;000;882;2019-07-21T06:47:58-07:00;
04;862557;04-535949;00;"38'5"" Liveaboard-""Deva"" (Mr/Mrs McKay)";;Issued;2004-07-27;2004-12-31;Live-aboards;;;;;;VANCOUVER;BC;CA;V6G3E7;Downtown;000;1351;2019-07-21T06:47:58-07:00;
04;862561;04-535953;00;"26' 10' Liveaboard-""Sweet Pea"" (Mr/Mrs Mitchell)";;Issued;2004-07-27;2004-12-31;Live-aboards;;;;;;VANCOUVER;BC;CA;V6G3E7;Downtown;000;1073;2019-07-21T06:47:58-07:00;
04;862565;04-535957;00;"36' 4""Liveaboard-""Karma"" (Mr/Mrs Rowse)";;Issued;2004-07-27;2004-12-31;Live-aboards;;;;;;VANCOUVER;BC;CA;V6G3E7;Downtown;000;1225;2019-07-21T06:47:58-07:00;
05;968526;05-194807;00;">37' Liveaboard-""Fortuna"" (Mr/Mrs Kirby)";;Issued;2005-11-01;2005-12-31;Live-aboards;;;;;;VANCOUVER;BC;CA;V6G3E7;Downtown;000;1351;2019-07-21T06:47:58-07:00;
